iata,name,city,country,latitude,longitude
ARA,Acadiana Regional Airport,LFT,US,30.034448893905015,-91.87951346971477
ARB,Ann Arbor Municipal Airport,ARB,US,42.295744944723445,-83.74923877232511
ARC,Arctic Village Airport,ARC,US,68.1361434995388,-145.51981672014128
ARD,Alor Island Airport,ARD,ID,-8.686040359964426,124.53810396726576
ARE,Arecibo Airport,ARE,PR,18.44924082562759,-66.67509773418138
ARF,Acaricuara Airport,ARF,CO,0.532850751435345,-70.13003281261645
ARG,Walnut Ridge Airport,ARG,US,36.06196447794162,-90.94558755355307
ARH,Talagi Airport,ARH,RU,64.62964049287015,40.60551901195541
ARI,Chacalluta Airport,ARI,CL,-18.351838912968624,-70.34775875278893
ARJ,Arso Airport,ARJ,ID,-2.9335438369622624,140.78719230461778
ARK,Arusha Airport,ARK,TZ,-3.368991875325847,36.686486239796324
ARL,Arly Airport,ARL,BF,11.596665710610122,1.483960729857703
ARM,Armidale Airport,ARM,AU,-30.53291951462713,151.62754946088512
ARN,Arlanda Airport,STO,SE,59.6563680223196,17.93930914747819
ARO,Arboletas Airport,ARO,CO,8.846468696963331,-76.4325693786782
ARP,Aragip Airport,ARP,PG,-9.803308190243126,149.50187164777208
ARQ,Arauquita Airport,ARQ,CO,7.030192049949534,-71.43065109474861
ARR,Alto Rio Senguerr Airport,ARR,AR,-45.03448346226389,-70.82904120246472
ARS,Aragarcas Airport,ARS,BR,-15.905307840952368,-52.23083224349186
ART,Watertown Airport,ART,US,43.98597087749148,-76.02003961318776
ARU,Aracatuba Airport,ARU,BR,-21.147872472361723,-50.426016227018515
ARV,Noble F. Lee Airport,ARV,US,45.92256856381105,-89.73092037193635
ARW,Arad Airport,ARW,RO,46.18039795969527,21.268193084780666
ARX,Asbury Park Airport,ARX,US,40.21590794622496,-74.09490298429549
ARY,Ararat Airport,ARY,AU,-37.31674194545925,143.0045312563924
ARZ,N'Zeto Airport,ARZ,AO,-7.500017284179439,13.504615022229714
ASA,Assab International Airport,ASA,ER,13.069167410752954,42.63951861093394
ASB,Ashgabat Airport,ASB,TM,37.98137057812026,58.361480268901076
ASC,Ascension Airport,ASC,BO,-15.916767190832356,-63.14567944284733
ASD,Andros Town Airport,ASD,BS,24.694480642289403,-77.79047928756843
ASE,Aspen Airport,ASE,US,39.218959874591555,-106.86809039574095
ASF,Astrakhan Airport,ASF,RU,46.415312070914105,48.08834641754122
ASG,Ashburton Airport,ASG,NZ,-43.90002660716521,171.78420268277978
ASH,Boire Field,ASH,US,42.77702739439923,-71.5051343076476
ASI,Wideawake Field,ASI,SH,-7.969842945296167,-14.398429798716862
ASJ,Amami O Shima Airport,ASJ,JP,28.41297735286962,129.70045656460977
ASK,Yamoussoukro Airport,ASK,CI,6.812468244211153,-5.282671075328846
ASL,Harrison County Airport,ASL,US,32.54973094255933,-94.37760734732274
ASM,Asmara International Airport,ASM,ER,15.286513192716722,38.91529307918737
ASN,Talladega Airport,ASN,US,33.432088930487424,-86.0983662241351
ASO,Asosa Airport,ASO,ET,10.04395026885466,34.53789655711249
ASP,Alice Springs Airport,ASP,AU,-23.806395540742248,133.88878320517495
ASQ,Austin Airport,ASQ,US,39.46533162814308,-117.16413611667161
ASR,Erkilet Airport,ASR,TR,38.70329766772852,35.51192251389133
AST,Astoria Airport,AST,US,46.15747925993529,-123.87920927841296
ASU,Silvio Pettirossi Airport,ASU,PY,-25.244520898792405,-57.51350545325482
ASV,Amboseli Airport,ASV,KE,-2.6356058627244288,37.25371637489296
ASW,Daraw Airport,ASW,EG,23.96109420280116,32.824751924584476
ASX,Ashland Airport,ASX,US,46.54709032566575,-90.9112112114604
ASY,Ashley Airport,ASY,US,46.03142811880271,-99.36234087530057
ASZ,Asirim Airport,ASZ,PG,-5.867087673924525,150.36703804955926
ATA,Anta Airport,ATA,PE,-9.35067155394638,-77.5956754622505
ATB,Atbara Airport,ATB,SD,17.71585438613935,34.02223435024945
ATC,Arthur'S Town Airport,ATC,BS,24.62572625055676,-75.67053883335822
ATD,Atoifi Airport,ATD,SB,-8.869386542949663,161.03552032555237
ATE,Antlers Airport,ATE,US,34.228499232994665,-95.61519664379404
ATF,Chachoan Airport,ATF,EC,-1.0886197757438447,-78.69575256016192
ATG,Attock Airport,ATG,PK,33.89618320911686,72.25571062572948
ATH,Eleftherios Venizelos International Airport,ATH,GR,37.9355365936949,23.949636560468463
ATI,Artigas Airport,ATI,UY,-30.40114125987549,-56.505096324194135
ATJ,Antsirabe Airport,ATJ,MG,-19.85298813403778,47.01691513300883
ATK,Atqasuk Airport,ATK,US,70.49672517858691,-157.32847613466296
ATL,Hartsfield Jackson Atlanta Airport,ATL,US,33.63835381323264,-84.42533187750799
ATM,Altamira Airport,ATM,BR,-3.2028340768303587,-52.21364407244552
ATN,Namatanai Airport,ATN,PG,-3.6669300630070927,152.46979374781773
ATO,Ohio University Airport,ATO,US,39.327822844677804,-82.09911971036338
ATP,Aitape Airstrip,ATP,PG,-3.1684566675206267,142.28834494078154
ATQ,Raja Sansi Airport,ATQ,IN,31.70175612691307,74.7996419028574
ATR,Mouakchott Airport,ATR,MR,20.49469977448611,-13.046248710992975
ATS,Artesia Airport,ATS,US,32.84767062434445,-104.46166448698372
ATT,Atmautluak Airport,ATT,US,60.86530467522269,-162.26737226312085
ATU,Casco Cove Airport,ATU,US,52.820977663253885,173.17649576395186
ATV,Ati Airport,ATV,TD,13.241054243858201,18.311730334615014
ATW,Outagamie County Airport,ATW,US,44.25526133080299,-88.51624636013045
ATX,Atbasar Airport,ATX,KZ,51.88132804856772,68.40543053775573
ATY,Watertown Airport,ATY,US,44.90843232113131,-97.15072562205044
ATZ,Asyut Airport,ATZ,EG,27.03214874421941,31.002747737064798
AUA,Reina Beatrix Airport,AUA,AW,12.501938983203612,-70.0097122001975
AUB,Itauba Airport,AUB,BR,-5.769684907491912,-63.34621379687891
AUC,Arauca Airport,AUC,CO,7.070299347642671,-70.7373664034248
AUD,Augustus Downs Airport,AUD,AU,-18.512266396193883,139.8819190320243
AUE,Abu Rudeis Airport,AUE,EG,28.89999203880633,33.185717176935896
AUF,Aeroport Branches,AUF,FR,47.84770519270333,3.5007720510681923
AUG,Augusta Airport,AUG,US,44.31255637265564,-69.791986260025
AUH,Abu Dhabi International Airport,AUH,AE,24.430920717691535,54.65444290820084
AUI,Aua Island Airport,AUI,PG,-1.4610423502628425,143.07902129948056
AUJ,Ambunti Airport,AUJ,PG,-4.251346661602771,142.8555648305944
AUK,Alakanuk Airport,AUK,US,62.687312277836945,-164.6107691862172
AUL,Aur Island Airport,AUL,MH,8.130271282295073,171.17113856325778
AUM,Austin Airport,AUM,US,43.665112495946374,-92.97959056762619
AUN,Auburn Airport,AUN,US,38.898104908141036,-121.06597730268977
AAA,Anaa Airport,AAA,PF,-17.05122404593104,-145.41095716514963
AAB,Arrabury Airport,AAB,AU,-26.70556324905525,141.04501828540742
AAC,El Arish International Airport,AAC,EG,31.128795463102797,33.75294389693794
AAD,Ad-Dabbah Airport,AAD,SD,18.04817041001715,30.951179808831203
AAE,Rabah Bitat Airport,AAE,DZ,36.81826790964255,7.815144283237256
AAF,Apalachicola Municipal Airport,AAF,US,29.73077868340625,-84.98109754008276
AAG,Arapoti Airport,AAG,BR,-24.104335222527375,-49.784302879022896
AAH,Merzbrueck Airport,AAH,DE,50.82135782146261,6.187944347922336
AAI,Arraias Airport,AAI,BR,-12.920198423634037,-46.930974277777146
AAJ,Cayana Airstrip,AAJ,SR,3.8961132186254623,-55.3649123554764
AAK,Aranuka Airport,AAK,KI,0.16615775847484895,173.5890255294423
AAL,Aalborg Airport,AAL,DK,57.089514630337106,9.85487441092943
AAM,Mala Mala Airport,AAM,ZA,-24.80334361237565,31.53559811497417
AAN,Al Ain International Airport,AAN,AE,24.247574534706295,55.75452342120685
AAO,Anaco Airport,AAO,VE,9.43088529555901,-64.46348248093125
AAP,Andrau Airpark,HOU,US,29.8281840111598,-95.66103404331399
AAQ,Vityazevo Airport,AAQ,RU,44.896971263704025,37.31674194545925
AAR,Tirstrup Airport,AAR,DK,56.298831441448925,10.622637192510345
AAS,Apalapsili Airport,AAS,ID,-3.919031491498617,139.25165649617222
AAT,Altay Airport,AAT,CN,43.92867583563883,89.50174020452573
AAU,Asau Airport,AAU,WS,-13.458778476483406,-172.59780115633336
AAV,Alah Airport,AAV,PH,6.331183660101259,124.76728413467636
AAW,Abbottabad Airport,AAW,PK,34.199850004521046,73.2526518671737
AAX,Araxa Airport,AAX,BR,-19.572238330846282,-46.925243749063505
AAY,Al Ghaydah Airport,AAY,YE,16.197516994023854,52.1849948439719
AAZ,Quetzaltenango Airport,AAZ,GT,14.862525784893597,-91.501360046317
ABA,Abakan Airport,ABA,RU,53.71479329351468,91.501360046317
ABC,Los Llanos Airport,ABC,ES,38.94394230766099,-1.862112765873284
ABD,Abadan Airport,ABD,IR,30.361034389069175,48.23731625843378
ABE,Lehigh Valley International Airport,ABE,US,40.65135641147536,-75.4356213070448
ABF,Abaiang Airport,ABF,KI,1.6673072330080576,173.30827743379808
ABG,Abingdon Airport,ABG,AU,-17.670018694166686,143.20506561042396
ABH,Alpha Airport,ABH,AU,-23.65169858623063,146.63708540419364
ABI,Regional Airport,ABI,US,32.4064916303804,-99.67746531303746
ABJ,Felix Houphouet Boigny Airport,ABJ,CI,5.254023127515698,-3.9247607395517883
ABK,Kabri Dehar Airport,ABK,ET,6.7322540757117,44.26671897313568
ABL,Ambler Airport,ABL,US,67.08189697095817,-157.8441417566206
ABM,Bamaga Airport,ABM,AU,-10.86900979983552,142.40292819429766
ABN,Albina Airport,ABN,SR,5.494665206127233,-54.08148565948515
ABO,Aboisso Airport,ABO,CI,5.431640062447763,-3.2142932132669357
ABP,Atkamba Airport,ABP,PG,-6.067622881729745,141.1023099121655
ABQ,Albuquerque International Airport,ABQ,US,35.04209770654824,-106.6045270560485
ABR,Aberdeen Municipal Airport,ABR,US,45.447013227754326,-98.42269126061441
ABS,Abu Simbel Airport,ABS,EG,22.368271890239384,31.615811856586802
ABT,Al-Aqiq Airport,ABT,SA,20.282706070574548,41.636843425681484
ABU,Atambua Airport,ABU,ID,-9.13867699626117,124.88760474709531
ABV,Abuja International Airport,ABV,NG,8.995437684082248,7.270834555447893
ABW,Abau Airport,ABW,PG,-10.187189581033582,148.7054715905486
ABX,Albury Airport,ABX,AU,-36.073422120274316,146.9808624854987
ABY,Dougherty County Airport,ABY,US,31.529867586260533,-84.19042118138374
ABZ,Dyce Airport,ABZ,GB,57.204104714042415,-2.194428362864261
ACA,Alvarez International Airport,ACA,MX,16.753286071693207,-99.76340958336372
ACB,Antrim County Airport,ACB,US,44.9829155340303,-85.21601506639618
ACC,Kotoka International Airport,ACC,GH,5.592067972559846,-0.16615775847484895
ACD,Acandi Airport,ACD,CO,8.514152673085531,-77.29773578046537
ACE,Lanzarote Airport,ACE,ES,28.934368380899006,-13.602017788662328
ACH,Sankt Gallenaltenrhein,ACH,CH,47.48101282673286,9.562665257857944
ACI,Alderney Airport,ACI,GG,49.704089137410264,-2.211617174240833
ACJ,Anuradhapura Airport,ACJ,LK,8.34799466114663,80.38597849292997
ACK,Nantucket Memorial Airport,ACK,US,41.252962888664676,-70.05554959971745
ACL,Aguaclara Airport,ACL,CO,4.749820270532648,-72.99482588638406
ACM,Arica Airport,ACM,CO,-2.0053522914956177,-71.83171980281176
ACN,Ciudad Acuna International Airport,ACN,MX,29.295333633250426,-100.91505460950874
ACP,Sahand Airport,ACP,IR,37.35111828755193,46.15174873122165
ACR,Araracuara Airport,ACR,CO,-0.3838817109555753,-72.29581749653579
ACS,Achinsk Airport,ACS,RU,56.26445509935625,90.56744096034448
ACT,Waco Municipal Airport,ACT,US,31.60435079915952,-97.22520883494944
ACU,Achutupo Airport,ACU,PA,9.574124607737932,-79.72134644517436
ACV,Arcata Airport,ACV,US,40.97794190663952,-124.10265208692076
ACX,Xingyi Airport,ACX,CN,25.084091708019855,104.96013852280042
ACY,Atlantic City International Airport,AIY,US,39.44814345709675,-74.5819159626849
ACZ,Zabol Airport,ACZ,IR,31.082961478677426,61.535667251691926
ADA,Sakirpasa Airport,ADA,TR,36.978695392867806,35.28274234648072
ADB,Adnan Menderes Airport,IZM,TR,38.279310259905394,27.152469356638353
ADC,Andakombe Airport,ADC,PG,-7.139054166262135,145.73754949050294
ADD,Bole International Airport,ADD,ET,8.97251898432227,38.80070299548207
ADE,Aden International Airport,ADE,YE,12.822795657201423,45.03448346226389
ADF,Adiyaman Airport,ADF,TR,37.74645988199602,38.26785261757269
ADG,Lenawee County Airport,ADG,US,41.89467282156571,-84.02998686796931
ADH,Aldan Airport,ADH,RU,58.59639096502532,125.40327036905293
ADI,Arandis Airport,ADI,NA,-22.40264993987935,15.000034568358878
ADJ,Marka International Airport,AMM,JO,31.948127880464604,35.98747784994805
ADK,Adak Island Naval Station,ADK,US,51.88132804856772,-176.64288506962504
ADL,Adelaide Airport,ADL,AU,-34.950426322602915,138.53547018056133
ADM,Ardmore Municipal Airport,ADM,US,34.302982445893655,-97.01894395220422
ADN,Andes Airport,ADN,CO,5.666552466119304,-75.92836481414786
ADO,Andamooka Airport,ADO,AU,-31.019935908111133,137.15463815681656
ADP,Ampara Airport,ADP,LK,7.333860126014185,81.62929831811489
ADQ,Kodiak Airport,ADQ,US,57.75414667809271,-152.481254805245
ADR,Andrews Airport,ADR,US,33.44927710153376,-79.56664949066274
ADS,Addison Airport,DFW,US,32.77891452506452,-97.29969204784842
ADT,Ada Airport,ADT,US,34.79572595299671,-96.66371264366103
ADU,Ardabil Airport,ADU,IR,38.244933917812716,48.300341829000075
ADW,Andrews Air Force Base,ADW,US,38.81216063781477,-76.86229073030955
ADX,Leuchars Raf,ADX,GB,56.361857012015214,-2.8647890183427984
ADY,Alldays Airport,ADY,ZA,-22.67194039319086,29.05468899331795
ADZ,San Andres Island Airport,ADZ,CO,12.582153578589887,-81.69805100230023
AEA,Abemama Atoll Airport,AEA,KI,0.4812845307490412,173.85258886913473
AEB,Baise Airport,AEB,CN,23.714722449249628,106.96548889330533
AED,Aleneva Airport,AED,US,58.029164245023274,-152.89952192963824
AEE,Adareil Airport,AEE,SD,10.05540961873465,32.967991236763396
AEG,Aek Godang Airport,AEG,ID,1.3980169931399615,99.41963933224781
AEH,Abeche Airport,AEH,TD,13.848389542213859,20.855663319290237
AEI,Algeciras Railway Station,AEI,ES,36.12499004850792,-5.448828660380923
AEK,Aseki Airport,AEK,PG,-7.368237321880505,146.2875846243641
AEL,Albert Lea Airport,AEL,US,43.64792432490004,-93.3634745197376
AEO,Aioun El Atrouss Airport,AEO,MR,16.70744867217325,-9.63142050336423
AEP,Jorge Newbery Airport,BUE,AR,-34.560815256872466,-58.41304819713467
AER,Sochi International,AER,RU,43.447389970868464,39.93515985058075
AES,Vigra Airport,AES,NO,62.56126113670436,6.107730179422884
AET,Allakaket Airport,AET,US,66.56050765047608,-152.65314334589755
AEU,Abu Musa Airport,AEU,IR,25.886232539240737,55.04405397393129
AEX,Alexandria International Airport,AEX,US,31.329333232228958,-92.54987604618401
AEY,Akureyri Airport,AEY,IS,65.65523437788259,-18.071089109777127
AFA,San Rafael Airport,AFA,AR,-34.589461070251495,-68.39970000904209
AFD,Port Alfred Airport,AFD,ZA,-33.58678588499904,26.888909432040485
AFF,United States Air Force Academy Airport,COS,US,38.829348808861106,-104.69657518310797
AFI,Amalfi Airport,AFI,CO,6.915600685583761,-75.06319841236068
AFK,Kondavattavan Tank Airport,ADP,LK,7.2880235802678754,81.64075937554217
AFL,Alta Floresta Airport,AFL,BR,-10.003843398048346,-55.99516464604474
AFN,Jaffrey Municipal Airport,AFN,US,42.82859532263282,-72.06663049893601
AFO,Afton Municipal Airport,AFO,US,42.731193409973855,-110.93035906498437
AFR,Afore Airport,AFR,PG,-9.13867699626117,148.38460296371974
AFS,Zarafshan Airport,AFS,UZ,41.608194197207865,64.23429548333148
AFT,Afutara Aerodrome,AFT,SB,-9.201702566827464,160.85217072747255
AFW,Fort Worth Alliance Airport,FTW,US,32.98517940780973,-97.31115310527571
AFY,Afyon Airport,AFY,TR,38.73194689620214,30.601675613907062
AFZ,Sabzevar Airport,AFZ,IR,36.16509691931423,57.59944972358109
AGA,Almassira Airport,AGA,MA,30.37822256011551,-9.545477086811607
AGB,Augsburg Airport,MUC,DE,48.42066244141902,10.932034516628168
AGC,Allegheny County Airport,PIT,US,40.35341672969024,-79.92761132791958
AGD,Anggi Airport,AGD,ID,-1.386557856703384,133.87158478884487
AGE,Flugplatz Airport,AGE,DE,53.78354939279461,7.918276724609863
AGF,La Garenne Airport,AGF,FR,44.169317060476715,0.6016056767765148
AGG,Angoram Airport,AGG,PG,-4.171132919990141,144.07596937111396
AGH,Angelholm Airport,AGH,SE,56.287373799116224,12.862902528007739
AGI,Wageningen Airport,AGI,SR,5.832710478058204,-56.831685234452884
AGJ,Aguni Airport,AGJ,JP,26.58524092908901,127.24246272761894
AGK,Kagua Airport,AGK,PG,-6.405668153660717,143.84678920370334
AGL,Wanigela Airport,AGL,PG,-9.344941879006386,149.15810822684534
AGM,Tasiilaq Airport,AGM,GL,65.59793592093536,-37.67770378271609
AGN,Angoon Airport,AGN,US,57.50204439582754,-134.5820610663096
AGO,Magnolia Municipal Airport,AGO,US,33.26593091854852,-93.23169284989136
AGP,Malaga Airport,AGP,ES,36.66929806874999,-4.497718842041124
AGQ,G Karaiskakis Airport,AGQ,GR,38.60016522635591,21.35413735510694
AGR,Kheria Airport,AGR,IN,27.158199885351994,77.96809835693462
AGS,Bush Field,AGS,US,33.36333283120749,-81.96161434199269
AGT,Alejo Garcia Airport,AGT,PY,-25.502352002223923,-54.83206197756702
AGU,Aguascalients Airport,AGU,MX,21.697911021317434,-102.31307138920529
AGV,Acarigua Airport,AGV,VE,9.551206761751601,-69.2304900687366
AGW,Agnew Airport,AGW,AU,-12.152434788279475,142.1508259120325
AGX,Agatti Island Airport,AGX,IN,10.99506008719446,72.00360834346431
AGY,Argyle Downs Airport,AGY,AU,-16.352215656082766,128.75507642120996
AGZ,Aggeneys Airport,AGZ,ZA,-29.05468899331795,18.850311241238032
AHA,Naha Air Force Base,OKA,JP,26.19562986335856,127.65499249310938
AHB,Abha Airport,AHB,SA,18.231516593002386,42.650979668361224
AHC,Amedee Army Air Field,AHC,US,40.14715184694502,-120.13205821671725
AHD,Ardmore Downtown Airport,ADM,US,34.16547366242837,-97.12780350719588
AHE,Ahe Airport,AHE,PF,-14.432806140809536,-146.25320145208224
AHF,Arapahoe Municipal Airport,AHF,US,40.296121687837584,-99.89519125320994
AHH,Amery Municipal Airport,AHH,US,45.29804338686176,-92.34933486196326
AHI,Amahai Airport,AHI,ID,-3.334614466016115,128.9212276029597
AHL,Aishalton Airport,AHL,GY,2.4809072006655173,-59.31259094101452
AHM,Summer Parker Field Airport,AHM,US,42.186881974637195,-122.65880473789343
AHN,Athens Airport,AHN,US,33.947747722255876,-83.32525477959656
AHO,Fertilia Airport,AHO,IT,40.628437711715385,8.29069961929398
AHS,Ahuas Airport,AHS,HN,15.441211854775634,-84.41960134879434
AHT,Amchitka Airport,AHT,US,51.49744751155091,179.00348040905146
AHU,Cherif Al Idrissi Airport,AHU,MA,35.17960990510811,-3.83308764805917
AHW,Saih Rawl Airport,AHW,OM,21.342678005226947,54.76903640700073
AHY,Ambatolahy Airport,AHY,MG,-20.01914614597668,45.53868461169965
AHZ,Alpe D Huez Airport,AHZ,FR,45.08032086178385,6.084811906549729
AIA,Alliance Airport,AIA,US,42.04937319117192,-102.80581489630835
AIB,Anita Bay Airport,AIB,US,56.23007875726358,-132.3818932101084
AIC,Airok Airport,AIC,MH,7.494287609239445,170.83882253937998
AID,Anderson Municipal Airport,AID,US,40.164340017991364,-85.68010592993103
AIE,Aiome Airport,AIE,PG,-5.16807928407625,144.6718487346842
AIF,Assis Airport,AIF,BR,-22.67194039319086,-50.41455516959124
AIG,Yalinga Airport,AIG,CF,6.514530269973319,23.25062817062019
AIH,Aiambak Airport,AIH,PG,-7.351048297060522,141.26847475429358
AII,Ali-Sabieh Airport,AII,DJ,11.14975874925337,42.71973235254657
AIK,Aiken Municipal Airport,AIK,US,33.56386718523906,-81.71524258844116
AIL,Ailigandi Airport,AIL,PA,9.247539112573772,-78.08268844063991
AIM,Ailuk Island Airport,AIM,MH,10.198648930913572,169.98511719502008
AIN,Wainwright Airport,AIN,US,70.62850684843315,-160.0328485553945
AIO,Atlantic Municipal Airport,AIO,US,41.3962022008436,-95.01359358169931
AIP,Ailinglapalap Island Airport,AIP,MH,7.265104880507898,168.82201794163694
AIR,Aripuana Airport,AIR,BR,-10.250215151599877,-59.38134362519987
AIS,Arorae Island Airport,AIS,KI,-2.6527946741010004,176.83769572513214
AIT,Aitutaki Airport,AIT,CK,-18.850311241238032,-159.74636310084747
AIU,Atiu Island Airport,AIU,CK,-20.036334317023016,-158.09624403888577
AIV,George Downer Airport,AIV,US,33.12841871998866,-88.14955399415997
AIW,Ai-Ais Airport,AIW,NA,-27.9889882374992,17.584074423840413
AIX,Aix En Provence,AIX,FR,43.5161460701484,5.443098985440929
AIY,Bader Field,AIY,US,39.35647207315142,-74.45586482155232
AIZ,Lee C Fine Memorial Airport,AIZ,US,38.095964076920154,-92.54414551747037
AJA,Campo Dell' Oro Airport,AJA,FR,41.92332205003933,8.80636097238337
AJF,Jouf Airport,AJF,SA,29.98288096567142,40.204446888797676
AJI,Agri Airport,AJI,TR,39.64867781112832,43.0291296766644
AJJ,Akjoujt Airport,AJJ,MR,19.726936992905195,-14.369782277790536
AJK,Araak Airport,AJK,IR,34.1310973203357,49.83586739216191
AJL,Aizawl Airport,AJL,IN,23.749100498889597,92.75041040021559
AJN,Ouani Airport,AJN,KM,-12.129516942293144,44.432876985074586
AJO,Aljouf Airport,AJO,YE,15.716232836800783,44.25526133080299
AJR,Arvidsjaur Airport,AJR,SE,65.58648169369724,19.285759706488438
AJS,Abreojos Airport,AJS,MX,26.831614390187834,-113.66337046890577
AJU,Aracaju Airport,AJU,BR,-10.983600737314472,-37.047451492147744
AJY,Agades Airport,AJY,NE,16.95955095443842,7.998490466222493
AKA,Ankang Airport,AKA,CN,32.66432444135921,109.20002626141002
AKB,Atka Airport,AKB,US,52.21364407244552,-174.19635229006147
AKC,Fulton International Airport,CAK,US,41.03523694849218,-81.46314030617599
AKD,Akola Airport,AKD,IN,20.66658831513865,77.08574036900652
AKE,Akieni Airport,AKE,GA,-1.174563512461586,13.917144787720146
AKF,Kufrah Airport,AKF,LY,24.19600831401999,23.336570733399167
AKG,Anguganak Airport,AKG,PG,-3.6382821151939435,142.01904424218628
AKH,Prince Sultan Air Base,AKH,SA,24.058497823007418,47.584145268105466
AKI,Akiak Airport,AKI,US,60.905411546029,-161.21886992363218
AKJ,Asahikawa Airport,AKJ,JP,43.665112495946374,142.45449612253125
AKK,Akhiok Sea Plane Base,AKK,US,56.940544789444544,-154.16575703948857
AKL,Auckland International Airport,AKL,NZ,-37.013075150055066,174.803692711059
AKM,Zakouma Airport,AKM,TD,10.880468295941863,19.818610084397815
AKN,King Salmon Airport,AKN,US,58.66515047939984,-156.63519827352835
AKO,Washington County Airport,AKO,US,40.164340017991364,-103.21261413308514
AKP,Anaktuvuk Airport,AKP,US,68.1361434995388,-151.73640901587677
AKQ,Gunung Batin Airport,AKQ,ID,-4.618039881346892,105.23515608973098
AKR,Akure Airport,AKR,NG,7.247915855687914,5.087865115576797
AKS,Gwaunaru'U Airport,AKS,SB,-8.703228531010764,160.68601954572281
AKT,Akrotiri Raf Station,AKT,CY,34.589461070251495,32.99090993652337
AKU,Aksu Airport,AKU,CN,41.16128808962476,80.33441056469637
AKV,Akulivik Airport,AKV,CA,60.72779930685199,-78.58116247645663
AKW,Aghajari Airport,AKW,IR,30.744914926085986,49.68690096636393
AKX,Aktyubinsk Airport,AKX,KZ,50.248397157652334,57.22129630018333
AKY,Civil Airport,AKY,MM,20.128007408515636,92.88218523987264
ALA,Almaty Airport,ALA,KZ,43.3499880582095,77.03417244077292
ALB,Albany International Airport,ALB,US,42.74265105230655,-73.802693831224
ALC,Alicante Airport,ALC,ES,38.279310259905394,-0.5614986458876412
ALD,Alerta Airport,ALD,PE,-11.68833880210274,-69.32789539649015
ALE,Alpine Airport,ALE,US,30.412598902208185,-103.74547134118369
ALF,Alta Airport,ALF,NO,69.97533585810483,23.38240813291912
ALG,Houari Boumediene Airport,ALG,DZ,36.692216768509965,3.2200228882069304
ALH,Albany Airport,ALH,AU,-34.950426322602915,117.80584604957265
ALI,Alice International Airport,ALI,US,27.748345305114018,-98.06172942335758
ALJ,Kortdoorn Airport,ALJ,ZA,-28.56767601492853,16.541292367781644
ALK,Asela Airport,ALK,ET,7.964113270356173,39.12155796193259
ALL,Albenga Airport,ALL,IT,44.04326591934413,8.130271282295073
ALM,Alamogordo Municipal Airport,ALM,US,32.84194009563081,-105.9800018790992
ALN,Alton Airport,ALN,US,38.88664385071375,-90.04604480967322
ALO,Waterloo Airport,ALO,US,42.553574340607675,-92.39517226148322
ALP,International Airport,ALP,SY,36.176554561646924,37.230797675132976
ALQ,Federal Airport,ALQ,BR,-29.805265311399822,-55.76025394992049
ALR,Alexandra Airport,ALR,NZ,-45.21782964524913,169.3720530754981
ALS,Alamosa Municipal Airport,ALS,US,37.43133202916455,-105.86541179539391
ALT,Alenquer Airport,ALT,BR,-1.9365972594327423,-54.76330587828709
ALU,Alula Airport,ALU,SO,11.963358930354243,50.80416623532169
ALV,Andorra La Vella Off-Line-Point,ALV,AD,42.49627929875502,1.518338139167435
ALW,Walla Walla Airport,ALW,US,46.094453689369004,-118.28714215962677
ALX,Thomas C Russell Field,ALX,US,32.927884365957084,-85.94939979833713
ALY,El Nouzha Airport,ALY,EG,31.19755156238273,29.90266722405879
ALZ,Alitak Sea Plane Base,ALZ,US,56.89470738992459,-154.24023342219837
AMA,Amarillo International Airport,AMA,US,35.22544388953348,-101.71719885582421
AMB,Ambilobe Airport,AMB,MG,-13.18375920200555,48.987892576515655
AMC,Am Timan Airport,AMC,TD,11.02943728306078,20.288434891740895
AMD,Ahmedabad Airport,AMD,IN,23.06155145892131,72.62813352041358
AME,Alto Molocue Airport,AME,MZ,-15.836553449219727,37.586032398770755
AMF,Ama Airport,AMF,PG,-4.171132919990141,141.66954346235673
AMG,Amboin Airport,AMG,PG,-4.618039881346892,143.70354647642984
AMH,Arba Minch Airport,AMH,ET,6.033245685863425,37.58030187005712
AMI,Selaparang Airport,AMI,ID,-8.565718893771836,116.09843536085286
AMJ,Almenara Airport,AMJ,BR,-16.186057644143865,-40.6800022248544
AMK,Animas Airpark,DRO,US,37.14485340480671,-107.74471102476623
AML,Puerto Armuelles Airport,AML,PA,8.262051244594007,-82.86115708587253
AMM,Queen Alia International Airport,AMM,JO,31.71321376924577,36.00466943608897
AMN,Gratiot Community Airport,AMN,US,43.378633871588534,-84.64878151620496
AMO,Mao Airport,AMO,TD,14.111950320585372,15.320891242356689
AMP,Ampanihy Airport,AMP,MG,-24.70021117100304,44.73654378047877
AMQ,Pattimura Airport,AMQ,ID,-2.3032902657334513,128.08472067492988
AMR,Arno Airport,AMR,MH,7.030192049949534,171.23416754891866
AMS,Schiphol Airport,AMS,NL,52.305315456390844,4.772738543405803
AMT,Amata Airport,AMT,AU,-26.76858881962154,132.03812978918165
AMU,Amanab Airport,AMU,PG,-3.517960862444764,141.1538778403991
AMV,Amderma Airport,AMV,RU,69.76334044664597,61.55285883783285
AMW,Ames Airport,AMW,US,41.99207814931926,-93.61557680200276
AMX,Ammaroo Airport,AMX,AU,-21.74374842083739,135.2409557551624
AMY,Ambatomainty Airport,AMY,MG,-17.68720686521302,45.67046628154588
AMZ,Ardmore Airport,AMZ,NZ,-37.03599043472046,174.9698575531871
ANA,Anaheim Airport,ANA,US,33.81596946750423,-117.93190402089441
ANB,County Airport,ANB,US,33.58678588499904,-85.85199447058358
ANC,Anchorage International Airport,ANC,US,61.168974885721454,-149.9831677578262
AND,Anderson Airport,AND,US,34.49205915759253,-82.70646013136093
ANE,Marce,ANE,FR,47.463824655686516,-0.5443098878719224
ANF,Cerro Moreno Airport,ANF,CL,-23.439703174771772,-70.43943355182886
ANG,Brie-Champniers Airport,ANG,FR,45.727761323398525,0.2177239658209395
ANH,Anuha Island Resort Airport,ANH,SB,-8.98397833420226,160.502669947643
ANI,Aniak Airport,ANI,US,61.56431306507096,-159.52864399086417
ANJ,Zanaga Airport,ANJ,CG,-2.853329881906221,13.836931046107516
ANK,Etimesgut Airport,ANK,TR,39.980993835006124,32.83620956691717
ANL,Andulo Airport,ANL,AO,-11.252891190625979,17.251758399962615
ANM,Antsirabato,ANM,MG,-15.000034568358878,50.31715325693227
ANN,Annette Island Airport,ANN,US,55.0325963315986,-131.56829473655483
ANO,Angoche Airport,ANO,MZ,-16.180328822977515,39.94088696419981
ANP,Lee Airport,ANP,US,38.97831864975367,-76.49559836433907
ANQ,Tri-State Steuben County Airport,ANQ,US,41.63111289696784,-84.99828912622368
ANR,Antwerp International Airport,ANR,BE,51.188050187433085,4.46334121928798
ANS,Andahuaylas Airport,ANS,PE,-13.72233925485492,-73.3557877236409
ANT,St Anton Heliport,ANT,AT,47.12004757438144,10.24448547665988
ANU,V.C. Bird International Airport,ANU,AG,17.102790266617344,-61.75912372057807
ANV,Anvik Airport,ANV,US,62.64720540703063,-160.18753867971694
ANW,Ainsworth Airport,ANW,US,42.547847226988615,-99.86654543983092
ANX,Andenes Airport,ANX,NO,69.28778852568384,16.14595077333755
ANY,Anthony Airport,ANY,US,37.14485340480671,-98.03307677978937
ANZ,Angus Downs Airport,ANZ,AU,-25.084091708019855,132.16989779864954
AOA,Aroa Airport,AOA,PG,-9.052733579708546,146.8032502463217
AOB,Annanberg Airport,AOB,PG,-4.92170753052472,144.6546503183541
AOC,Altenburg Nobitz Airport,AOC,DE,50.98178530468787,12.450372762517308
AOD,Abou Deia Airport,AOD,TD,11.470615423251182,19.29148852765479
AOE,Anadolu Airport,ESK,TR,38.9955068208,30.504273701248096
AOG,Anshan Airport,AOG,CN,41.16128808962476,123.03695133110202
AOH,Allen County Airport,AOH,US,40.76594649518067,-84.09874638234383
AOI,Falconara Airport,AOI,IT,43.61354798280737,13.361375710050792
AOJ,Aomori Airport,AOJ,JP,40.73157015308799,140.70124120410236
AOK,Karpathos Airport,AOK,GR,35.420251129946,27.146740535472006
AOL,Paso De Los Libres Airport,AOL,AR,-29.68494469898088,-57.14680967218976
AOM,Adam Airport,AOM,OM,22.49432303137197,57.38745431212224
AON,Arona Airport,AON,PG,-6.336913335041253,146.00109916981705
AOO,Altoona Airport,AOO,US,40.296121687837584,-78.31759913676417
AOR,Alor Setar Airport,AOR,MY,6.187944347922336,100.40512634645393
AOS,Amook Airport,AOS,US,57.46193752502122,-153.82770365670797
AOT,Corrado Gex Airport,AOT,IT,45.73349185211217,7.368237321880505
AOU,Attopeu Airport,AOU,LA,14.799500214327304,106.8337072234591
AOY,Asaloyeh,YEH,IR,27.461866680756174,52.61471278050867
APA,Arapahoe County Airport,DEN,US,39.72889496783554,-104.98305380746581
APB,Apolo Airport,APB,BO,-14.719286472714673,-68.5142900927474
APC,Napa County Airport,APC,US,38.210554160625456,-122.27492078578203
APE,San Juan Aposento Airport,APE,PE,-11.93471055565427,-69.08152364293862
APF,Naples Airport,APF,US,26.149794171385896,-81.77253421519923
APG,Phillips Army Air Field,APG,US,39.49971138533034,-76.16328234046128
APH,Camp A P Hill Airport,APH,US,38.04439614868656,-77.34930370869897
API,Apiay Airport,API,CO,4.068000478617534,-73.0463869844285
APK,Apataki Airport,APK,PF,-15.418294862562949,-146.0813129114297
APL,Nampula Airport,APL,MZ,-15.103167009731486,39.28771597387149
APN,Alpena County Regional Airport,APN,US,45.08032086178385,-83.55443494700718
APO,Apartado Airport,APO,CO,7.030192049949534,-77.19460675418735
APP,Asapa Airport,APP,PG,-8.98397833420226,148.13823804035738
APQ,Arapiraca Airport,APQ,BR,-9.751741969556821,-36.64637936899001
APR,April River Airport,APR,PG,-8.502693323205541,145.004164758562
APS,Anapolis Airport,APS,BR,-16.335027485036427,-48.96497387675568
APT,Marion County Airport,APT,US,35.065016406308224,-85.49676316204038
APU,Apucarana Airport,APU,BR,-23.55429496602437,-51.480259340504574
APV,Apple Valley Airport,APV,US,34.52070838606615,-117.20998034638073
APW,Faleolo Airport,APW,WS,-13.836931046107516,-171.99619809423862
APX,Arapongas Airport,APX,BR,-23.48554057429173,-51.46306775436365
APY,Alto Parnaiba Airport,APY,BR,-9.13867699626117,-45.9282956774301
APZ,Zapala Airport,APZ,AR,-38.92102360790101,-70.07846488438285
AQA,Araraquara Airport,AQA,BR,-21.818233341283673,-48.128453288347536
AQB,Quiche Airport,AQB,GT,15.011493918238866,-91.14612873777382
AQG,Anqing Airport,AQG,CN,30.515731343580793,117.0380918057282
AQI,Hafar Al Batin Airport,AQI,SA,28.32703308254335,46.134560560175316
AQJ,King Hussein International Airport,AQJ,JO,29.616188599700944,35.019179006788264
AQM,Ariquemes Airport,AQM,BR,-9.93508815254206,-63.06546570123471
AQP,Rodriguez Ballon Airport,AQP,PE,-16.340756306202778,-71.55097170716756
AQS,Saqani Airport,AQS,FJ,-17.005386646411083,170.90185152504085
AQY,Alyeska Airport,AQY,US,60.96271000297624,-149.1122639971362
BDV,Moba Airport,BDV,CD,-7.001544102136385,29.805265311399822
BSU,Basankusu Airport,BSU,CD,1.2204000582078955,19.789962563471487
BSV,Besakoa Airport,BSV,MG,-15.670395437280828,47.068483061242425
BSW,Boswell Bay Airport,BSW,US,60.39548328297419,-146.1328808396633
BSX,Bassein Airport,BSX,MM,16.79912176366587,94.78440658409953
BSY,Bardera Airport,BSY,SO,2.349127024923172,42.33585181552976
BSZ,Bartletts Airport,BSZ,US,58.22969859905485,-157.34567455099307
BTA,Bertoua Airport,BTA,CM,4.537825712847439,13.728068929794913
BTB,Betou Airport,BTB,CG,3.0481354147714472,18.500807046313895
BTC,Batticaloa Airport,BTC,LK,7.700552491984659,81.68086624634849
BTD,Brunette Downs Airport,BTD,AU,-18.666965058252792,135.91704886034526
BTE,Bonthe Airport,BTE,SL,6.995814854083213,-12.003465801160557
BTF,Salt Lake Skypark,BTF,US,40.880539993980555,-111.88146973709782
BTG,Batangafo Airport,BTG,CF,7.414073867626815,18.334649034374994
BTH,Hang Nadim Airport,BTH,ID,1.06570150287069,104.13507899181955
BTI,Barter Island Airport,BTI,US,70.13003281261645,-143.57748850510808
BTJ,Blang Bintang Airport,BTJ,ID,5.517583479000387,95.4203928184761
BTK,Bratsk Airport,BTK,RU,56.361857012015214,101.82032788210223
BTL,Wk Kellogg Regional Airport,BTL,US,42.30720258705614,-85.24466087977521
BTM,Butte Airport,BTM,US,45.945487263571025,-112.48880332790618
BTN,Bennettsville Airport,BTN,US,34.61237977001148,-79.68123957436805
BTO,Botopasie Airport,BTO,SR,4.2456174135496,-55.44512609708903
BTP,Graham Field,BTP,US,40.8461602367933,-79.9161502704923
BTQ,Butare Airport,BTQ,RW,-2.6012284534146968,29.736509212119888
BTR,Ryan Airport,BTR,US,30.527192401008076,-91.14612873777382
BTS,M.R. Stefanik Airport,BTS,SK,48.162833045534796,17.21738205786994
BTT,Bettles Airport,BTT,US,66.91000843030564,-151.5244136044179
BTU,Bintulu Airport,BTU,MY,3.1741861290172095,113.04457582067012
BTV,Burlington International Airport,BTV,US,44.467253327167256,-73.14952284089568
BTW,Batu Licin Airport,BTW,ID,-3.002298869025138,116.00103686328848
BTX,Betoota Airport,BTX,AU,-25.702886356255497,140.73562437638418
BTY,Beatty Airport,BTY,US,36.89848165125518,-116.76306740860846
BUA,Buka Airport,BUA,PG,-5.437369310500935,154.6699616040189
BUB,Burwell Municipal Airport,BUB,US,41.780082737860404,-99.13316070788997
BUC,Burketown Airport,BUC,AU,-17.750232435779314,139.53814195071922
BUD,Ferihegy Airport,BUD,HU,47.429444898499256,19.234193485802134
BUF,Buffalo Niagara International Airport,BUF,US,42.93745829271907,-78.73585943096823
BUG,17 De Setembro Airport,BUG,AO,-12.610801099516214,13.407212255797102
BUI,Bokondini Airport,BUI,ID,-2.0053522914956177,133.5851129946762
BUJ,Bou Saada Airport,BUJ,DZ,35.16241831896719,4.153943895170158
BUK,Albuq Airport,BUK,YE,15.83082462805338,43.76824493731898
BUL,Bulolo Airport,BUL,PG,-7.190619960061617,146.64854646162092
BUM,Butler Airport,BUM,US,38.26212208885905,-94.33176994780278
BUN,Buenaventura Airport,BUN,CO,3.8216282981791805,-76.99406556996661
BUO,Burao Airport,BUO,SO,9.516828712111634,45.555872782745986
BUP,Bhatinda Airport,BUP,IN,30.166227148656656,74.97153044350995
BUQ,Bulawayo Airport,BUQ,ZW,-20.01914614597668,28.619242235614834
BUR,Bob Hope Airport,BUR,US,34.199850004521046,-118.35589484381211
BUS,Batumi Airport,BUS,GE,41.608194197207865,41.60246708358881
BUV,Bella Union Airport,BUV,UY,-30.3381156893092,-57.07805698800441
BUW,Baubau Airport,BUW,ID,-5.471746933254078,122.63588262303887
BUX,Bunia Airport,BUX,CD,1.5699043598537388,30.21779507689025
BUY,Bunbury Airport,BUY,AU,-33.31749543168753,115.63433766712883
BUZ,Bushehr Airport,BUZ,IR,28.94582943832629,50.832815463795306
BVA,Beauvais-Tille Airport,PAR,FR,49.451986855145094,2.1142141943648083
BVB,Boa Vista Airport,BVB,BR,2.8304116090330664,-60.664770321191114
BVC,Rabil Airport,BVC,CV,16.082925202771257,-22.832367876416118
BVD,Beaver Inlet Sea Port,BVD,US,53.73198146456102,-166.31245617641252
BVE,Vallee De La Dordogne Airport,BVE,FR,45.149073545969195,1.4667719184811312
BVF,Dama Airport,BVF,FJ,-17.005386646411083,178.5049995430456
BVG,Berlevag Airport,BVG,NO,70.8634175445574,29.00312448017894
BVH,Vilhena Airport,BVH,BR,-12.719663215828815,-60.114735187329984
BVI,Birdsville Airport,BVI,AU,-25.903422417834367,139.34333129521212
BVK,Huacaraje Airport,BVK,BO,-13.550451567976024,-63.747282504942056
BVL,Baures Airport,BVL,BO,-13.584829617615991,-63.58112449300316
BVM,Belmonte Airport,BVM,BR,-15.836553449219727,-38.91529307918737
BVO,Bartlesville Airport,BVO,US,36.760972867789896,-96.01053482314354
BVP,Bolovip Airport,BVP,PG,-5.3858030898146305,141.70392663463855
BVR,Esperadinha Airport,BVR,CV,14.862525784893597,-24.728858691929368
BVS,Breves Airport,BVS,BR,-1.6673072330080576,-50.466123097824834
BVU,Beluga Airport,BVU,US,61.168974885721454,-151.03167009731484
BVV,Burevestnik Air Force Base,BVV,RU,44.919889963464,147.62257241839976
BVW,Batavia Downs Airport,BVW,AU,-12.650907970322528,143.22226402675406
BVX,Batesville Municipal Airport,BVX,US,35.7640247961565,-91.64459594340134
BVY,Beverly Airport,BVY,US,42.547847226988615,-70.88060913069832
BVZ,Beverley Springs Airport,BVZ,AU,-15.000034568358878,124.00525358935639
BWA,Bhairawa Airport,BWA,NP,27.50197355156249,83.42265327716095
BWB,Barrow Island Airport,BWB,AU,-20.786908927557597,115.42234225566997
BWC,Brawley Airport,BWC,US,32.97945229419068,-115.51401705470988
BWD,Brownwood Airport,BWD,US,31.7934275108584,-98.95554163852378
BWE,Braunschweig/Wolfsburg Airport,BWE,DE,52.31677651381813,10.559612475717698
BWF,Walney Island Airport,BWF,GB,54.11586541667241,-3.231482024643508
BWG,Warren County Airport,BWG,US,36.96150722182147,-86.41922119058562
BWH,Butterworth Airport,BWH,MY,5.466017258314084,100.39366528902666
BWI,Balt/Wash Intl Airport,BWI,US,39.17312589016618,-76.66748007480244
BWJ,Bawan Airport,BWJ,PG,-6.405668153660717,146.90064874388608
BWK,Bol Airport,BWK,HR,43.28123195892957,16.684531679960564
BWL,Blackwell Airport,BWL,US,36.79534920988257,-97.28250729189668
BWM,Bowman Airport,BWM,US,46.18039795969527,-103.39596373116497
BWN,Brunei International Airport,BWN,BN,4.92170753052472,114.92959874856692
BWO,Balakovo Airport,BWO,RU,51.86413987752138,47.75030328004436
BOP,Bouar Airport,BOP,CF,5.998868063110281,15.670395437280828
BOQ,Boku Airport,BOQ,PG,-6.537448542846474,155.35177840772627
BOR,Belfort Off-Line-Point,BOR,FR,47.6529013673854,7.013003452016373
BOS,Logan International Airport,BOS,US,42.364501044003376,-71.00092974311725
BOT,Boset Airport,BOT,PG,-7.236457359581572,141.08512515621373
BOU,Bourges Airport,BOU,FR,47.148696802855056,2.417881843542636
BOV,Boang Airport,BOV,PG,-3.368991875325847,153.33496014960488
BOW,Bartow Airport,BOW,US,27.897315146006584,-81.82983267214647
BOX,Borroloola Airport,BOX,AU,-16.07146585289127,136.28373439612656
BOY,Bobo Dioulasso Airport,BOY,BF,11.161218099133361,-4.320101907109058
BOZ,Bozoum Airport,BOZ,CF,6.411397828600712,16.587128059754306
BPA,Grumman Airport,BPA,US,40.73157015308799,-73.48183886477348
BPB,Boridi Airport,BPB,PG,-9.13867699626117,147.53663497826264
BPC,Bamenda Airport,BPC,CM,5.9129246465576575,10.152812385167262
BPD,Bapi Airport,BPD,PG,-7.752118712670963,147.02096935630502
BPE,Bagan Airport,BPE,MM,23.995472252441125,96.00481112461907
BPF,Batuna Airport,BPF,SB,-8.554259543891845,158.11916615374034
BPG,Barra Do Garcas Airport,BPG,BR,-15.853741620266064,-52.37980208438442
BPH,Bislig Airport,BPH,PH,8.193296852861366,126.32572839759817
BPI,Big Piney-Marbleton Airport,BPI,US,42.53065564084769,-110.11103006271715
BPK,Biangabip Airport,BPK,PG,-5.534772503820371,141.74975720396935
BPL,Bole Airport,BPL,CN,44.89124415008497,82.20225556683059
BPM,Begumpet Airport,HYD,IN,17.45229446154148,78.38635865113869
BPN,Sepingan Airport,BPN,ID,-1.2834254153307767,116.83755745169663
BPS,Porto Seguro Airport,BPS,BR,-16.535561839068002,-39.081451091126276
BPT,Jefferson County Airport,BPT,US,29.948504623578746,-94.0166455100659
BPU,Beppu Airport,BPU,JP,33.2487393324076,131.50527941127228
BPX,Bangda Airport,BPX,CN,30.550111100768053,97.11061875124413
BPY,Besalampy Airport,BPY,MG,-16.753286071693207,44.48444491330818
BQA,Baler Airport,BQA,PH,14.994305747192529,121.08889941754434
BQB,Busselton Airport,BQB,AU,-33.718567554845265,115.25045371501744
BQE,Bubaque Airport,BQE,GW,11.298727736372289,-15.848012799099717
BQG,Bogorodskoye Airport,BQG,RU,52.37407155567078,140.44913892183718
BQH,Biggin Hill Airport,LON,GB,51.331289499612005,0.03437746934069149
BQI,Bagani Airport,BQI,NA,-18.12265533046343,21.634887158298433
BQK,Glynco Jetport,SSI,US,31.163175220290057,-81.48032506212775
BQL,Boulia Airport,BQL,AU,-22.901122268148757,139.90484114687885
BQN,Borinquen Airport,BQN,PR,18.495078225147545,-67.12773437047812
BQO,Bouna Airport,BQO,CI,9.26472728362011,-2.9965691940851436
BQQ,Barra Airport,BQQ,BR,-11.086733178687078,-43.132262118037005
BQS,Ignatyevo Airport,BQS,RU,50.41455516959124,127.4028902108442
BQT,Brest Airport,BQT,BY,52.11624215978655,23.88661098990217
BQU,Bequia Airport,BQU,VC,12.98322399420033,-61.26064968476137
BQV,Bartlett Sea Plane Base,GST,US,58.41304819713467,-135.72797556374096
BQW,Balgo Hills Airport,BQW,AU,-20.185302450368287,127.8039725792857
BRA,Barreiras Airport,BRA,BR,-12.07795072160684,-45.005834233790274
BRB,Barreirinhas Airport,BRB,BR,-2.8361410705296493,-42.82859532263282
BRC,International,BRC,AR,-41.14983044729207,-71.15562669762888
BRD,Crow Wing County Airport,BRD,US,46.39239337115413,-94.13696612248485
BRE,Bremen Airport,BRE,DE,53.04443413214002,8.794902476277027
BRF,Bradford Forster Sq Rail,BRF,GB,53.795007035127306,-1.7475212947858048
BRG,Whitesburg Municipal Airport,BRG,US,37.116207591427674,-82.8325112724935
BRH,Brahman Airport,BRH,PG,-5.700930088872448,145.3708502943433
BRI,Palese Airport,BRI,IT,41.13263886115114,16.770474242739542
BRJ,Bright Airport,BRJ,AU,-36.70367782593725,146.93503191616793
BRK,Bourke Airport,BRK,AU,-30.086013407044025,145.93808384453453
BRL,Burlington Airport,BRL,US,40.78313466622701,-91.12320662291926
BRM,Barquisimeto Airport,BRM,VE,10.04395026885466,-69.35081068115554
BRN,Belp Airport,BRN,CH,46.91378269163622,7.500017284179439
BRO,South Padre Island International Airport,BRO,US,25.903422417834367,-97.42001266026737
BRP,Biaru Airport,BRP,PG,-7.534395333819406,146.70011438985452
BRQ,Turany Airport,BRQ,CZ,49.14832005974091,16.69598932229326
BRR,Barra Airport,BRR,GB,57.020758531057176,-7.436992567386793
BRS,Bristol Airport,BRS,GB,51.377126899131966,-2.704360894787304
BRT,Bathurst Island Airport,BRT,AU,-11.768553397489017,130.63437565058229
BRU,Brussels Airport,BRU,BE,50.8958410343616,4.486259492161135
BRV,Bremerhaven Airport,BRV,DE,53.74916963560735,8.920952763635967
BRW,Wiley Post/Will Rogers Memorial Airport,BRW,US,71.28167783876147,-156.76697994337457
BRX,Barahona Airport,BRX,DO,18.214328421956047,-71.11551982682256
BRY,Samuels Field,BRY,US,37.81521598127595,-85.46238681994771
BSA,Bossaso Airport,BSA,SO,11.281538711552304,49.15405058845455
BSB,Brasilia International Airport,BSB,BR,-15.865200970146054,-47.91073076326962
BSC,Bahia Solano Airport,BSC,CO,6.182214672982342,-77.39514110821892
BSD,Baoshan Airport,BSD,CN,25.147117278586148,99.15034546384172
BSE,Sematan Airport,BSE,MY,1.7990874087504027,109.76725298141207
BSF,Bradshaw Army Air Field,BSF,US,21.382784876033263,-157.74674325905622
BSG,Bata Airport,BSG,GQ,1.9022198501230103,9.803308190243126
BSH,Brighton Railway Station,BSH,GB,50.81562729274897,-0.11459156446897165
BSI,Blairsville Airport,BSI,US,40.44509152873015,-79.2801708663049
BSJ,Bairnsdale Airport,BSJ,AU,-37.83813126594134,147.63403347582704
BSK,Mohamed Khider Airport,BSK,DZ,34.78999883937766,5.7410369596787625
BSL,Euroairport Swiss,EAP,FR,47.5898757968191,7.534395333819406
BSM,Bishen-Kola Airport,BSM,IR,36.64637936899001,52.351152855910804
BSN,Bossangoa Airport,BSN,CF,6.583285088592783,17.503860682227785
BSO,Basco Airport,BSO,PH,20.44886408251345,121.98271163271055
BSP,Bensbach Airport,BSP,PG,-8.336536165040288,141.08512515621373
BSQ,Bisbee Municipal Airport,BSQ,US,31.363709574321632,-109.8761193665929
BSR,Basrah International Airport,BSR,IQ,30.550111100768053,47.79614067956432
BSS,Balsas Airport,BSS,BR,-7.517206308999422,-46.04861628984904
BST,Bost Airport,BST,AF,31.547055757306868,64.37180768189134
AUO,Auburn-Opelika Airport,AUO,US,32.62994809926654,-85.49676316204038
AUP,Agaun Airport,AUP,PG,-9.986654373228362,149.58782274828752
AUQ,Atuona Airport,AUQ,PF,-9.768930140603159,-139.01101527133432
AUR,Aurillac Airport,AUR,FR,44.896971263704025,2.423611518482631
AUS,Austin-Bergstrom International Airport,AUS,US,30.194876377130274,-97.6663844138189
AUT,Atauro Airport,AUT,ID,-8.221944373787691,125.58661996713275
AUU,Aurukun Mission Airport,AUU,AU,-13.17229985212556,142.2539617684997
AUV,Aumo Airport,AUV,PG,-5.718118686805608,148.43617089195334
AUW,Wausau Municipal Airport,AUW,US,44.919889963464,-89.62206081694468
AUX,Araguaina Airport,AUX,BR,-7.202079309941605,-48.19720938762747
AUY,Aneityum Airport,AUY,VU,-20.334272291260852,169.66998592709402
AUZ,Aurora Municipal Airport,AUZ,US,41.74570639576773,-88.31571200609888
AVA,An Shun/Huang Guo Shu Airport,AVA,CN,26.252926612758504,105.8768728528212
AVB,Aviano Air Base,AVB,IT,46.03142811880271,12.599341749636224
AVF,Avoriaz Airport,AVF,FR,46.19758613074161,6.772360946518015
AVG,Auvergne Airport,AVG,AU,-15.65320726623449,130.0213115310603
AVI,Maximo Gomez Airport,AVI,CU,22.024498224028886,-78.78742735920183
AVK,Arvaikheer Airport,AVK,MN,46.26634223002154,102.7886301403566
AVL,Asheville Regional Airport,AVL,US,35.4317087722787,-82.54030211942202
AVN,Caumont,AVN,FR,43.89429607845157,4.90451893259156
AVO,Avon Park Municipal Airport,AVO,US,27.59937717176875,-81.51470823440958
AVP,Wilkes-Barre International Airport,AVP,US,41.33890374389636,-75.72209993140264
AVU,Avu Avu Airport,AVU,SB,-9.837685386109445,160.38807303374853
AVV,Avalon Airport,MEL,AU,-37.75219041070966,144.96978158628016
AVW,Avra Valley Airport,TUS,US,32.41222215909404,-111.21110716062857
AVX,Avalon Bay Airport,AVX,US,33.34041413144751,-118.31005061410299
AWA,Awasa Airport,AWA,ET,7.058839997762683,38.491305671364245
AWB,Awaba Airport,AWB,PG,-8.02140916598247,142.7524289741272
AWD,Aniwa Airport,AWD,VU,-19.251381656848473,169.5038347453443
AWE,Alowe Airport,AWE,GA,-0.7505747172562846,9.453803995318987
AWK,Wake Island Airport,AWK,UM,19.280029177774797,166.63904850176584
AWM,West Memphis Municipal Airport,AWM,US,35.12804197687451,-90.17782647951945
AWN,Alton Downs Airport,AWN,AU,-26.252926612758504,138.66725185040758
AWP,Austral Downs Airport,AWP,AU,-20.500430303199753,137.7505175203868
AWR,Awar Airport,AWR,PG,-4.125295947357009,144.87238308871576
AWZ,Ahwaz Airport,AWZ,IR,31.335060345848014,48.7644395227241
AXA,Wallblake Airport,AXA,AI,18.214328421956047,-63.06546570123471
AXB,Alexandria Bay Airport,AXB,US,44.249530802089346,-75.89971900076883
AXC,Aramac Airport,AXC,AU,-22.958419017548703,145.24480598339989
AXD,Dimokritos Airport,AXD,GR,40.85189076550694,25.960717459687018
AXE,Xanxere Airport,AXE,BR,-26.888909432040485,-52.37980208438442
AXG,Algona Airport,AXG,US,43.06350943385166,-94.22864092152476
AXK,Ataq Airport,AXK,YE,13.865578567033841,46.300718572114214
AXL,Alexandria Airport,AXL,AU,-19.085223644909572,136.66761834823797
AXM,El Eden Airport,AXM,CO,4.446152621354821,-75.76220680220895
AXN,Alexandria Airport,AXN,US,45.86527010686381,-95.3917401749079
AXP,Springpoint Airport,AXP,BS,22.448485631852012,-73.96312131444925
AXR,Arutua Airport,AXR,PF,-15.252136850624048,-146.7459449591853
AXS,Altus Municipal Airport,LTS,US,34.6925935116241,-99.33369506192155
AXT,Akita Airport,AXT,JP,39.61430146903565,140.31735725199096
AXU,Axum Airport,AXU,ET,14.117679995525366,38.72048925386944
AXV,Neil Armstrong Airport,AXV,US,40.565412141149096,-84.19614487990822
AXX,Angel Fire Airport,AXX,US,36.41146867286576,-105.28099348925093
AYA,Ayapel Airport,AYA,CO,8.313617465280311,-75.14914268268696
AYC,Ayacucho Airport,AYC,CO,8.594367268471807,-73.61362053461971
AYD,Alroy Downs Airport,AYD,AU,-19.302947877534777,135.9514320326271
AYE,Army Air Field Heliport,AYE,US,42.547847226988615,-71.59680910668752
AYG,Yaguara Airport,AYG,CO,1.5297972756040124,-73.92874497235658
AYI,Yari Airport,AYI,CO,-0.338045111848413,-72.33019383862846
AYK,Arkalyk Airport,AYK,KZ,50.31142272821863,66.96730688725287
AYL,Anthony Lagoon Airport,AYL,AU,-18.036711060137158,135.53890226713668
AYN,Anyang Airport,AYN,CN,36.0963408200343,114.35091780132676
AYO,Ayolas Airport,AYO,PY,-27.370193589263557,-56.84887340549922
AYP,Yanamilla Airport,AYP,PE,-13.200947373051887,-74.24386941009347
AYQ,Connellan Airport,AYQ,AU,-25.336193990285025,131.05264277497554
AYR,Ayr Airport,AYR,AU,-19.60088585177261,147.3246395668038
AYS,Ware County Airport,AYS,US,31.24338896190269,-82.39132886343488
AYT,Antalya Airport,AYT,TR,36.90421217996882,30.790752325605943
AYU,Aiyura Airport,AYU,PG,-6.336913335041253,145.90370067225268
AYW,Ayawasi Airport,AYW,ID,-1.2032113535530296,132.50221382252735
AYZ,Zahns Airport,AYZ,US,40.66281405380806,-73.41307935039896
AZA,Williams Gateway Airport,PHX,US,33.294576731927556,-111.91584607919049
AZB,Amazon Bay Airport,AZB,PG,-10.152812385167262,148.8200548440647
AZD,Shahid Sadooghi Airport,AZD,IR,31.896559952231005,54.28202001351673
AZG,Apatzingan Airport,AZG,MX,19.068035473863233,-102.34744773129796
AZI,Bateen Airport,AUH,AE,24.413730839097905,54.45390855416927
AZL,Fazenda Tucunare Airport,AZL,BR,-13.475967501303389,-58.84849324729049
AZN,Andizhan Airport,AZN,UZ,40.73157015308799,72.30154119506025
AZO,Battle Creek International Airport,AZO,US,42.23271937415715,-85.54833109027398
AZP,Atizapan Airport,MEX,MX,19.411810847621023,-99.09877753560812
AZR,Touat Airport,AZR,DZ,27.880126974960245,-0.2807493229438206
AZS,Arroyo Barril International,AZS,DO,19.268569827894808,-69.73469463326694
AZT,Zapatoca Airport,AZT,CO,6.864034464897457,-73.24692133846006
AZZ,Ambriz Airport,AZZ,AO,-7.883899528743543,13.155110827305577
BAA,Bialla Airport,BAA,PG,-5.3170482711951665,151.03740745621766
BAB,Beale Air Force Base,MYV,US,39.144476661692565,-121.5816429246474
BAC,Barranca De Upia Airport,BAC,CO,4.577932583653753,-72.96617324281586
BAD,Barksdale Air Force Base,SHV,US,32.498166429420316,-93.66140737133354
BAE,St Pons,BAE,FR,44.38131247193557,6.66922893203223
BAF,Barnes Airport,BAF,US,42.12958693278455,-72.74845413283253
BWP,Bewani Airport,BWP,PG,-3.01948768040171,141.1538778403991
BWQ,Brewarrina Airport,BWQ,AU,-29.954235152292384,146.87200293050705
BWS,Blaine Airport,BWS,US,48.96497387675568,-122.83069327854597
BWT,Burnie Wynyard Airport,BWT,AU,-41.000860606399506,145.73181213160015
BWU,Bankstown Airport,BWU,AU,-33.91910190887684,151.03740745621766
BWW,Las Brujas Airport,BWW,CU,22.620374172504555,-79.14265866774502
BWY,Bentwaters Street Airport,BWY,GB,52.099053988740216,1.3178029313622144
BXA,George R. Carr Airport,BXA,US,30.928261109071222,-89.87988679773433
BXB,Babo Airport,BXB,ID,-2.555391694224976,133.41894815254813
BXC,Boxborough Airport,BXC,US,42.479091127708685,-71.528049592313
BXD,Bade Airport,BXD,ID,-7.167702114075285,139.50375877843737
BXE,Bakel Airport,BXE,SN,14.839607085133618,-12.467561787337292
BXF,Belburn Airport,BXF,AU,-17.54969808174774,128.30816348343768
BXG,Bendigo Airport,BXG,AU,-36.73805416802992,144.30514953852455
BXH,Balhash Airport,BXH,KZ,46.879406349543544,75.01736101284072
BXI,Boundiali Airport,BXI,CI,8.749065930530719,-6.497341245153335
BXJ,Burundai Airport,BXJ,KZ,43.49895448400748,76.9539586991603
BXK,Buckeye Airport,BXK,US,33.36333283120749,-112.58047812694609
BXL,Blue Lagoon Airport,BXL,FJ,-16.753286071693207,179.00348040905146
BXM,Batom Airport,BXM,ID,-4.119566699303838,140.85022129027865
BXN,Imsik Airport,BXN,TR,37.13339576247401,27.66813156350139
BXO,Buochs Airport,BXO,CH,46.96535061986982,8.388102385726592
BXR,Bam Airport,BXR,IR,29.111984035170604,58.36721079761471
BXS,Borrego Springs Airport,BXS,US,33.34041413144751,-116.32761552826346
BXT,Bontang Airport,BXT,ID,0.16615775847484895,117.50218949945221
BXU,Butuan Airport,BXU,PH,8.94960113833594,125.48922146956838
BXV,Breiddalsvik Airport,BXV,IS,64.78433744738177,-14.020277229092752
BXX,Borama Airport,BXX,SO,9.963735673468385,43.120804475704304
BXZ,Bunsil Airport,BXZ,PG,-5.718118686805608,147.86895100214045
BYA,Boundary Airport,BYA,US,64.07386800010622,-141.1137709695928
BYB,Diba Al Bayah Airport,BYB,OM,25.582565743836554,56.252997457023554
BYC,Yacuiba Airport,BYC,BO,-21.950013303582605,-63.64988400737767
BYD,Beidah Airport,BYD,YE,14.129139345405354,46.55282085437939
BYF,Bray Airport,BYF,FR,49.967649062008135,2.6929015449073153
BYG,Buffalo Municipal Airport,BYG,US,44.34693271474831,-106.6962018550884
BYH,Blytheville Air Force Base,BYH,US,35.930182808095395,-89.91426997001616
BYI,Rupert Airport,BYI,US,42.53638616956133,-113.77223002389742
BYK,Bouake Airport,BYK,CI,7.734930541624626,-5.064946842703643
BYL,Bella Yella Airport,BYL,LR,7.362507646940511,-9.998113723108352
BYM,C.M. De Cespedes Airport,BYM,CU,20.380107983233515,-76.64456479013705
BYN,Bayankhongor Airport,BYN,MN,46.094453689369004,100.68587444209814
BYO,Bonito Airport,BYO,BR,-21.2338150351407,-56.45353181105513
BYQ,Bunyu Airport,BYQ,ID,3.580986219567645,117.83450552333002
BYR,Laeso Airport,BYR,DK,57.11243333009708,11.000789762134454
BYS,Bicycle Lake Army Air Field,BYS,US,35.2655507603398,-116.56253305457689
BYT,Bantry Airport,BYT,IE,51.66360552348981,-9.482451516245314
BYU,Bindlacher Berg,BYU,DE,49.97911011943541,11.642502256356432
BYW,Blakely Island Airport,BYW,US,48.49514906941259,-122.99684446029569
BYX,Baniyala Airport,BYX,AU,-13.200947373051887,136.2379038267958
BZA,San Pedro Airport,BZA,NI,13.945792308646471,-84.59722041816053
BZB,Bazaruto Island Airport,BZB,MZ,-21.537483538092175,35.494734342844986
BZC,Buzios Airport,BZC,BR,-22.775072834563467,-41.963428920845644
BZD,Balranald Airport,BZD,AU,-34.618110298725114,143.6175953759144
BZE,Philip S.W. Goldson International,BZE,BZ,17.532508203154112,-88.3099883075744
BZF,Benton Field Airport,RDD,US,40.57114266986274,-122.40670245562825
BZG,Ignacy Jan Paderewski Airport,BZG,PL,53.09599864527903,17.979416018284507
BZH,Bumi Hills Airport,BZH,ZW,-16.822040463425846,28.355680603469676
BZI,Balikesir Airport,BZI,TR,39.61430146903565,27.93169319564655
BZK,Bryansk Airport,BZK,RU,53.262156657217936,34.337362203080914
BZL,Barisal Airport,BZL,BD,22.79798982677615,90.30387762065203
BZM,Bemolanga Airport,BZM,MG,-17.69866621509301,45.09177850411655
BZN,Gallatin Field,BZN,US,45.77932925163212,-111.15381553387051
BZO,Dolomiti Airport,BZO,IT,46.455418941720424,11.327375257298614
BZP,Bizant Airport,BZP,AU,-15.217758800984083,144.63746556240235
BZR,Beziers Vias Airport,BZR,FR,43.32133882973588,3.3575327388892697
BZS,Buzzards Point S Airport,WAS,US,38.857998037334724,-77.01125715610753
BZT,Hinkles Ferry,BZT,US,29.048961879698894,-95.56362871556044
BZU,Zega Airport,BZU,CD,2.796033986279923,24.734587513095715
BZV,Maya-Maya Airport,BZV,CG,-4.257076336542766,15.257865671790396
BZY,Beltsy Airport,BZY,MD,47.74457275133072,27.9374220168129
BZZ,Raf Station,BZZ,GB,50.99897347573421,-0.9969465775295202
CAA,Catacamas Airport,CAA,HN,14.82814773525363,-85.89210134138989
CAB,Cabinda Airport,CAB,AO,-5.586338297619851,12.204001008965777
CAC,Cascavel Airport,CAC,BR,-24.95231174572092,-53.462691011249504
CAD,Cadillac Airport,CAD,US,44.27244950184932,-85.41654942042776
CAE,Columbia Metropolitan Airport,CAE,US,33.93629007992318,-81.11363269615727
CAF,Carauari Airport,CAF,BR,-4.90451893259156,-66.91573895901928
CAG,Elmas Airport,CAG,IT,39.24187857435153,9.058462400874895
CAH,Ca Mau Airport,CAH,VN,9.173054192127491,105.18359499168655
CAI,Cairo International Airport,CAI,EG,30.131850806563982,31.409546973841586
CAJ,Canaima Airport,CAJ,VE,6.245239816661812,-62.830555005110455
CAK,Akron/Canton Regional Airport,CAK,US,40.90918580735959,-81.44021819132142
CAL,Campbeltown Airport,CAL,GB,55.43366503966175,-5.683741490939288
CAM,Camiri Airport,CAM,BO,-20.01341561726304,-63.558209208337765
CAN,Baiyun Airport,CAN,CN,23.181872071340255,113.26802545936708
CAO,Clayton Airport,CAO,US,36.44584501495844,-103.17823779099247
CAP,Cap Haitien Airport,CAP,HT,19.73266581407154,-72.1926816400686
CAQ,Caucasia Airport,CAQ,CO,7.597420050612052,-75.2465480104405
CAR,Caribou Municipal Airport,CAR,US,46.86221817849721,-68.01582288711987
CAS,Anfa Airport,CAS,MA,33.55813665652542,-7.6604456211783445
BDW,Bedford Downs Airport,BDW,AU,-17.30332462064892,127.47165655540789
BDX,Broadus Airport,BDX,US,45.46420139880066,-105.36120723086357
BDY,Bandon State Airport,BDY,US,43.11507394699066,-124.41205965632234
BDZ,Baindoung Airport,BDZ,PG,-6.336913335041253,146.95221667211968
BEA,Bereina Airport,BEA,PG,-8.65166231032446,146.48811897839565
BEB,Benbecula Airport,BEB,GB,57.479129111162145,-7.362507646940511
BEC,Beech Airport,ICT,US,37.67770378271609,-97.32833786122745
BED,Hanscom Field,BED,US,42.4676300702814,-71.28740836747511
BEE,Beagle Bay Airport,BEE,AU,-16.97101030431841,122.6702657953207
BEF,Bluefields Airport,BEF,NI,11.992006451280568,-83.76643035846602
BEG,Nikola Tesla Airport,BEG,RS,44.81675752209139,20.317084120214513
BEH,Ross Field,BEH,US,42.12385640407091,-86.42495171929926
BEI,Beica Airport,BEI,ET,9.390778424752694,34.53789655711249
BEJ,Berau Airport,BEJ,ID,2.165780415051112,117.70272385348379
BEK,Bareli Airport,BEK,IN,26.21281974195219,81.23395330857622
BEL,Val De Cans Airport,BEL,BR,-1.455312782044554,-48.47795748327167
BEN,Benina International Airport,BEN,LY,32.09709430626258,20.27124672069456
BEO,Belmont Airport,NTL,AU,-33.03674733604333,151.66765633169143
BEP,Bellary Airport,BEP,IN,15.177651930177767,76.90239760111587
BEQ,Honington Raf,BEQ,GB,52.345425742291745,0.7677634219111505
BER,Brandenburg Airport,BER,DE,52.36261391333808,13.504615022229714
BES,Bretagne Airport,BES,FR,48.443581141178996,-4.417504673541671
BET,Bethel Airport,BET,US,60.779360404896416,-161.82619668425139
BEU,Bedourie Airport,BEU,AU,-24.230384656112665,139.44646715167931
BEV,Beersheba Airport,BEV,IL,31.249119490616327,34.80145648171035
BEW,Beira Airport,BEW,MZ,-19.795691384637834,34.916046565415655
BEX,Royal Air Force Station,BEX,GB,51.62922576630255,-1.082890207525556
BEY,Rafic Hariri International Airport,BEY,LB,33.8102389387906,35.494734342844986
BEZ,Beru Airport,BEZ,KI,-1.3349916360170804,176.001175136724
BFA,Bahia Negra Airport,BFA,PY,-20.23686867105459,-58.16667644358314
BFB,Blue Fox Bay Airport,BFB,US,58.17813750101042,-152.13175402541546
BFC,Bloomfield Airport,BFC,AU,-15.905307840952368,145.3364807824398
BFD,Bradford Airport,BFD,US,41.79727090890675,-78.63845410321468
BFE,Windelsbleiche,BFE,DE,51.96154179018035,8.548530722725499
BFF,Scotts Bluff County Airport,BFF,US,41.871754121805736,-103.59649808519654
BFG,Bullfrog Basin Airport,BFG,US,37.5401949992508,-110.71263312481187
BFH,Bacacheri Airport,CWB,BR,-25.404948382017665,-49.22853380135354
BFI,Boeing Field International Airport,SEA,US,47.52685022625281,-122.2978429006366
BFJ,Ba Airport,BFJ,FJ,-17.55542690291409,177.68567737096757
BFK,Buckley Air National Guard Base,DEN,US,39.72889496783554,-104.86273319504686
BFL,Meadows Field,BFL,US,35.42598165865964,-119.04917270494674
BFM,Mobile Aerospace Field,MOB,US,30.681889355519694,-88.2297677357726
BFN,Bloemfontein International Airport,BFN,ZA,-29.100526392837907,26.304492833444808
BFO,Buffalo Range Airport,BFO,ZW,-21.01036198134915,31.581432099399542
BFP,Beaver Falls Airport,BFP,US,40.76594649518067,-80.39743955035723
BFQ,Bahia Pinas Airport,BFQ,PA,7.580231879565715,-78.16290218225255
BFR,Virgil I Grissom Municipal Airport,BFR,US,38.863728566048366,-86.4822501762465
BFS,Belfast International Airport,BFS,GB,54.64871579458179,-6.222321543788657
BFT,Beaufort County Airport,BFT,US,32.4064916303804,-80.6323502464815
BFU,Bengbu Airport,BFU,CN,32.94507253700342,117.33602465732415
BFV,Buri Ram Airport,BFV,TH,15.223489329697722,103.2584515326051
BFW,Sidi Belabbes Airport,BFW,DZ,35.168148847680825,-0.5844169721216488
BFX,Bafoussam Airport,BFX,CM,5.483206283134067,10.404913813658787
BGA,Palo Negro Airport,BGA,CO,7.104676543508992,-73.12660072604112
BGB,Booue Airport,BGB,GA,-0.10886198291046975,11.940440230594264
BGC,Braganca Airport,BGC,PT,41.81445907995308,-6.74944267364486
BGD,Borger Airport,BGD,US,35.64943471245119,-101.3963438893737
BGE,Decatur County Airport,BGE,US,30.911072938024887,-84.58002883201961
BGF,Bangui Mpoko International Airport,BGF,CF,4.3945864006685165,18.523725746073872
BGH,Abbaye Airport,BGH,MR,16.63296545927426,-14.197893737137996
BGI,Grantley Adams International Airport,BGI,BB,13.069167410752954,-59.4902100103807
BGJ,Borgarfjordur Eystri Airport,BGJ,IS,65.51199165060908,-13.802552996467549
BGK,Big Creek Airport,BGK,BZ,16.512643139308025,-88.3959257477115
BGL,Baglung Airport,BGL,NP,28.212441291290755,83.6862166168534
BGM,Binghamton Airport,BGM,US,42.19834303206448,-75.96847168495417
BGO,Flesland Airport,BGO,NO,60.292347426507,5.219645504762553
BGP,Bongo Airport,BGP,GA,-1.650118421631486,13.435860630497075
BGQ,Big Lake Airport,BGQ,US,31.19755156238273,-101.46509657355904
BGR,Bangor International Airport,BGR,US,44.8052998797587,-68.82369083195981
BGS,Webb Air Force Base,HCA,US,32.383572930620424,-101.4822813295108
BGT,Bagdad Airport,BGT,US,34.56654237049152,-113.18208118904082
BGU,Bangassou Airport,BGU,CF,4.784197466398969,22.786532184443455
BGV,Bento Goncalves Airport,BGV,BR,-29.16928249211784,-51.514635682597245
BGW,Baghdad International Airport,BGW,IQ,33.26593091854852,44.501633084354516
BGX,Bage Airport,BGX,BR,-31.403816445127948,-54.11013488795877
BGY,Bergamo/Orio Al Serio Airport,MIL,IT,45.664735752832236,9.705905423810512
BGZ,Braga Airport,BGZ,PT,41.545168626641576,-8.428209256532908
BHA,Bahia De Caraquez Airport,BHA,EC,-0.6016056767765148,-80.414624306309
BHB,Bar Harbor Airport,BHB,US,44.44433462740728,-68.35959313823578
BHC,Bhurban Heliport,BHC,PK,33.92483243759048,73.43600146525353
BHD,George Best City Airport,BFS,GB,54.61433603739453,-5.878547023804514
BHE,Blenheim Airport,BHE,NZ,-41.5222499268816,173.87549732361097
BHF,Bahia Cupica Airport,BHF,CO,6.7150654777785395,-77.51546172063787
BHG,Brus Laguna Airport,BHG,HN,15.73342100784712,-84.5399219612133
BHH,Bisha Airport,BHH,SA,19.984768096336715,42.62806096860125
BHI,Comandante Airport,BHI,AR,-38.73194689620214,-62.148731371213934
BHJ,Rudra Mata Airport,BHJ,IN,23.285004512712863,69.67166564760606
BHK,Bukhara Airport,BHK,UZ,39.763271309928214,64.48639776559665
BHL,Bahai Angeles Airport,BHL,MX,28.94582943832629,-113.5487735550113
BHM,Birmingham Airport,BHM,US,33.55813665652542,-86.75153721446343
BHN,Beihan Airport,BHN,YE,14.782310335733674,45.73349185211217
BHO,Bhopal Airport,BHO,IN,23.279275691546513,77.34357317998533
BHP,Bhojpur Airport,BHP,NP,27.18111858511197,87.05520742496219
BHQ,Broken Hill Airport,BHQ,AU,-32.00542292231725,141.46900910832514
BHR,Bharatpur Airport,BHR,NP,27.673862092215032,84.43679293493527
BHS,Raglan Airport,BHS,AU,-33.40917023072745,149.65657543247286
BHT,Brighton Downs Airport,BHT,AU,-23.370948783039132,141.57214496479233
BHU,Bhavnagar Airport,BHU,IN,21.74947724200374,72.18695111135496
BHV,Bahawalpur Airport,BHV,PK,29.398466074623034,71.68847707553826
BHW,Bhagatanwala Airport,SGI,PK,32.165850405542514,72.6682403912199
BHX,Birmingham Airport,BHX,GB,52.44855818366435,-1.741791726567516
BHY,Beihai Airport,BHY,CN,21.480188496239524,109.08543617770472
BIA,Poretta Airport,BIA,FR,42.547847226988615,9.488181191185308
BIB,Baidoa Airport,BIB,SO,3.065324226148019,43.636466682567345
BIC,Big Creek Airport,BIC,US,58.29845811342936,-157.51182573274278
BID,Block Island Airport,BID,US,41.16128808962476,-71.57388699183295
BIE,Beatrice Airport,BIE,US,40.296121687837584,-96.74965008379813
BIF,Biggs Army Air Field,ELP,US,31.747590111338443,-106.4784759149159
BIG,Intermediate Field,BIG,US,64.06241377286811,-145.73181213160015
BIH,Bishop Airport,BIH,US,37.36830645859826,-118.36161854233659
BII,Enyu Airfield,BII,MH,11.997736126220563,166.00306226738928
BIJ,Biliau Airport,BIJ,PG,-5.586338297619851,146.20164718422697
BIK,Mokmer Airport,BIK,ID,-1.191752217116452,136.0889374009978
BIL,Billings Airport,BIL,US,45.802244536297515,-108.54112474236805
BIM,Bimini International Airport,BIM,BS,25.69715753508915,-79.2801708663049
BIN,Bamiyan Airport,BIN,AF,34.80145648171035,67.8267427603264
BIO,Bilbao Airport,BIO,ES,43.2984201299759,-2.916355239029102
BIP,Bulimba Airport,BIP,AU,-16.151679594503896,143.75511440466343
BIQ,Bayonne-Anglet Airport,BIQ,FR,43.4645781419148,-1.518338139167435
BIR,Biratnagar Airport,BIR,NP,26.4305422670301,87.2843875923728
BIS,Bismarck Airport,BIS,US,46.7705433794573,-100.74889659756984
BIT,Baitadi Airport,BIT,NP,28.9973939514653,80.50056857663526
BIU,Bildudalur Airport,BIU,IS,65.63804279174167,-23.54283561614438
BIV,Bria Airport,BIV,CF,6.53171886790648,21.984391353222573
BIW,Billiluna Airport,BIW,AU,-19.572238330846282,127.16798634490912
BIX,Keesler Air Force Base,BIX,US,30.39541073116185,-88.8829455562901
BIY,Bisho Airport,BIY,ZA,-35.88434540857544,27.28425102648458
BIZ,Bimin Airport,BIZ,PG,-5.288400323382017,142.01904424218628
BJA,Soummamm-Abane Ramdane Airport,BJA,DZ,36.74951181036261,5.087865115576797
BJB,Bojnurd Airport,BJB,IR,37.48289995739815,57.307240570509606
BJC,Jeffco Airport,BJC,US,39.92942932186711,-105.06326754907843
BJD,Bakkafjordur Airport,BJD,IS,66.02192674385306,-14.822418914087281
BJE,Baleela Airport,BJE,SD,11.207054644879669,28.539028494002206
BJF,Batsfjord Airport,BJF,NO,70.5998610350541,29.667753112839957
BJG,Bolaang Airport,BJG,ID,-0.9511099250615052,122.10303224512948
BJH,Bajhang Airport,BJH,NP,29.54743250042101,81.25114489471713
BJI,Bemidji Airport,BJI,US,47.509662055206476,-94.93337984008667
BJJ,Wayne County Airport,BJJ,US,40.79459572365429,-81.93296169842449
BJK,Benjina Airport,BJK,ID,-6.084811906549729,134.25546874095625
BJL,Banjul International Airport,BJL,GM,13.349916360170804,-16.661612980200587
BJM,Bujumbura International Airport,BJM,BI,-3.3861804732590075,29.369816846149416
BJN,Bajone Airport,BJN,MZ,-17.188734536943613,38.08450301949287
BJO,Bermejo Airport,BJO,BO,-22.866745926056083,-64.33170081108503
BJP,Braganca Paulista Airport,BJP,BR,-22.95268848883506,-46.564278496712085
BJQ,Bahja Airport,BJQ,OM,19.87017630508412,56.06392074532467
BJR,Bahar Dar Airport,BJR,ET,11.585206360730133,37.3854946296446
BJT,Bentota River Airport,BJT,LK,6.480152647220176,79.98490978486682
BJU,Bajura Airport,BJU,NP,29.364086317435774,81.33708916504341
BJV,Milas Airport,BXN,TR,37.24798584617932,27.68532144209502
BJW,Bajawa Airport,BJW,ID,-8.77198377651705,120.98576356107715
BJX,Del Bajio Airport,BJX,MX,20.99317381030281,-102.4792294011442
BJY,Batajnica Airport,BEG,RS,44.81103040847234,20.317084120214513
BJZ,Talaveral La Real Airport,BJZ,ES,38.88664385071375,-6.818197919151148
BKA,Bykovo Airport,MOW,RU,55.42793792604269,37.96991293578757
BKB,Bikaner Airport,BKB,IN,28.01190693725918,73.30421979540729
BKC,Buckland Airport,BKC,US,65.9760893443331,-161.12145776568948
BKD,Stephens County Airport,BKD,US,32.744538182971844,-98.89824318157655
BKE,Baker Airport,BKE,US,44.83394910823232,-117.80584604957265
BKF,Brooks Lake Airport,BKF,US,58.59639096502532,-156.2284058669407
BKG,Branson Airport,BKG,US,36.52605875657106,-93.19731650779869
BKH,Barking Sands Airport,BKH,US,21.961472653462593,-159.71197992856563
BKI,Kota Kinabalu Airport,BKI,MY,5.935842919430812,116.05260479152207
BKJ,Baralande Airport,BKJ,GN,10.966412566268135,-14.27810833252427
BKK,Suvarnabhumi International,BKK,TH,13.682232384048604,100.74889659756984
BKL,Burke Lakefront Airport,CLE,US,41.51652281326254,-81.68086624634849
BKM,Bakalalan Airport,BKM,MY,3.9648680372449263,115.61715291117709
BKN,Birni Nkoni Airport,BKN,NE,13.796823321527555,5.254023127515698
BKO,Bamako Airport,BKO,ML,12.627990124336197,-8.02140916598247
BKP,Barkly Downs Airport,BKP,AU,-20.500430303199753,138.5010870082795
BKQ,Blackall Airport,BKQ,AU,-24.436649538857882,145.4338792800042
BKR,Bokoro Airport,BKR,TD,12.415995566650988,17.234570228916276
BKS,Padangkemiling Airport,BKS,ID,-3.7700625043797,102.30161716196719
BKT,Blackstone Army Air Field,BKT,US,37.06463966319408,-77.99674417031365
BKU,Betioky Airport,BKU,MG,-23.737641149009608,44.39277011426827
BKW,Beckley Airport,BKW,US,37.780836224088695,-81.11936322487091
BKX,Brookings Airport,BKX,US,44.30109531522836,-96.80694854074537
BKY,Kavumu Airport,BKY,CD,-2.3032902657334513,28.819778297193704
BKZ,Bukoba Airport,BKZ,TZ,-1.3006142267073484,31.80488856828568
BLA,Gen J A Anzoategui Airport,BLA,VE,10.106975839420953,-64.68693211962822
BLB,Balboa Airport,BLB,PA,8.97251898432227,-79.55518843323546
BLC,Bali Airport,BLC,CM,5.895735621737674,10.032490918974672
BLD,Boulder City Airport,LAS,US,35.98175073632899,-114.83220025100253
BLE,Dala Airport,BLE,SE,60.418398567639585,15.521427303935557
BLF,Mercer County Airport,BLF,US,37.29382324569927,-81.20530749519718
BLG,Belaga Airport,BLG,MY,2.69863121984731,113.7836910813247
BLH,Blythe Airport,BLH,US,33.61543511347266,-114.71760333710806
BLI,Bellingham Airport,BLI,US,48.79308533610313,-122.53276042695
BLJ,Mostepha Ben Boulaid Airport,BLJ,DZ,35.56349044212492,6.187944347922336
BLK,Blackpool Airport,BLK,GB,53.76635780665369,-3.030946816838287
BLL,Billund Airport,BLL,DK,55.73733525016051,9.15013634614116
BLM,Monmouth County Airport,BLM,US,40.18153160413228,-74.01468924268285
BLN,Benalla Airport,BLN,AU,-36.55470798504468,145.9839144138653
BLO,Blonduos Airport,BLO,IS,65.64377332045531,-20.282706070574548
BLP,Bellavista Airport,BLP,PE,-16.587128059754306,-69.41383966681641
BLQ,Guglielmo Marconi Airport,BLQ,IT,44.53027889773355,11.298727736372289
BLR,Bengaluru International Airport,BLR,IN,13.195217698111893,77.7102655459558
BLS,Bollon Airport,BLS,AU,-28.052013808065492,147.48506705002904
BLT,Blackwater Airport,BLT,AU,-23.588673015664337,148.88880752825008
BLU,Blue Canyon Airport,BLU,US,39.24760910306517,-120.71647652286022
BLV,Scott Afb/Mid America,BLV,US,38.51422437112423,-89.9944837116288
BLW,Bellows Field,BLW,US,21.33121865534696,-157.69517533082262
BLX,Belluno Airport,BLX,IT,46.163209788648935,12.249837554712087
BLY,Belmullet Airport,BLY,IE,54.21899785804502,-10.026761244034677
BLZ,Chileka Airport,BLZ,MW,-15.676125965994467,34.97334502236289
BMA,Bromma Airport,STO,SE,59.35269781182083,17.950768497358183
BMB,Bumba Airport,BMB,CD,2.1886986879242665,22.47713486032563
BMC,Brigham City Airport,BMC,US,41.545168626641576,-112.059088806464
BMD,Belo Airport,BMD,MG,-20.735342706871293,44.05472356167683
BME,Broome Airport,BME,AU,-17.950768497358183,122.23481391497572
BMF,Bakouma Airport,BMF,CF,5.729578036685597,22.80372035548979
BMG,Bloomington Airport,BMG,US,39.13874613297892,-86.61403184609273
BMH,Bomai Airport,BMH,PG,-6.417127503540706,144.58589763416876
BMI,Bloomington-Normal Airport,BMI,US,40.47946787082282,-88.92305242709641
BMJ,Baramita Airport,BMJ,GY,6.74944267364486,-59.99440774472187
BMK,Borkum Airport,BMK,DE,53.59447268109573,6.703606127898551
BML,Berlin Airport,BML,US,44.570385768539865,-71.1728182837698
BMM,Bitam Airport,BMM,GA,2.0741073235584935,11.493533269237515
BMN,Bamarni Airport,BMN,IQ,37.09901600528676,43.269774316596866
BMO,Bhamo Airport,BMO,MM,24.27049152691898,97.25385464832847
BMP,Brampton Island Airport,BMP,AU,-20.786908927557597,149.23832196845797
BMQ,Bamburi Airport,BMQ,KE,-4.503448090094295,39.837754522827204
BMR,Baltrum Airport,BMR,DE,53.71479329351468,7.402614517746826
BMS,Brumado Airport,BMS,BR,-14.238001461717957,-41.63111289696784
BMT,Beaumont Municipal Airport,BPT,US,30.080282878330387,-94.09685925167854
BMU,Bima Airport,BMU,ID,-8.502693323205541,118.91739103510052
BMV,Phung-Duc Airport,BMV,VN,12.662367320202518,108.05411176397864
BMW,Bordj Mokhtar Airport,BMW,DZ,21.314030484300623,1.0370536617792467
BMX,Big Mountain Airport,BMX,US,59.35842834053447,-155.25437991016187
BMY,Belep Island Airport,BMY,NC,-19.755584513831522,163.67112640172022
BMZ,Bamu Airport,BMZ,PG,-7.838062982997234,143.23372508418134
BNA,Nashville Metropolitan Airport,BNA,US,36.12499004850792,-86.67705400156443
BNB,Boende Airport,BNB,CD,-0.23491269715623195,20.872853197883867
BNC,Mavivi Airport,BNC,CD,0.5614986458876412,29.467218758808382
BND,Bandar Abbas International Airport,BND,IR,27.215494927204645,56.367587540728856
BNE,Brisbane International Airport,BNE,AU,-27.4274903386635,153.08859522624255
BNF,Warm Spring Bay Sea Plane Base,BNF,US,56.9978398312972,-134.99459083180002
BNG,Banning Airport,BNG,US,33.93055955120954,-116.86620326507565
BNH,Barnes Airport,HFD,US,41.76289456681407,-72.67969461845802
BNI,Benin City Airport,BNI,NG,6.31972431022127,5.6035273224398345
BNJ,Bonn Hbf Railway Station,CGN,DE,50.7296830224227,7.104676543508992
BNK,Ballina Byron Airport,BNK,AU,-28.83696646824004,153.55269291996657
BNL,Barnwell County Airport,BNL,US,33.2487393324076,-81.38292656456336
BNM,Bodinumu Airport,BNM,PG,-9.121487971441187,147.6168487198753
BNN,Bronnoy Airport,BNN,NO,65.45470002385102,12.209730683905773
BNO,Burns Airport,BNO,US,43.57916822562011,-118.94603684847955
BNP,Bannu Airport,BNP,PK,32.996640465237014,70.66861371923946
BNQ,Baganga Airport,BNQ,PH,13.246783918798196,121.05451624526249
BNR,Banfora Airport,BNR,BF,10.662744917090306,-4.663876427093201
BNS,Barinas Airport,BNS,VE,8.617285114458138,-70.21597708294271
BNT,Bundi Airport,BNT,PG,-5.752496309558752,145.45106403595594
BNU,Blumenau Airport,BNU,BR,-27.003501223293082,-48.99935021884835
BNV,Boana Airport,BNV,PG,-6.4285864265338715,146.82043500227346
BNW,Boone Airport,BNW,US,42.06656136221825,-93.87913331150604
BNX,Banja Luka International Airport,BNX,BA,44.931351020891285,17.30332462064892
BNY,Bellona Airport,BNY,SB,-11.304457411312283,159.82085314393564
BNZ,Banz Airport,BNZ,PG,-5.80979220518505,144.6145434475478
BOA,Boma Airport,BOA,CD,-5.867087673924525,13.069167410752954
BOB,Motu-Mute Airport,BOB,PF,-16.443888747575382,-151.74787007330406
BOC,Bocas Del Toro Airport,BOC,PA,9.339212204066392,-82.24809296635054
BOD,Merignac Airport,BOD,FR,44.828218579518676,-0.710467686367411
BOE,Boundji Airport,BOE,CG,-1.0370536617792467,15.383916812922982
BOF,Bolling Air Force Base,WAS,US,38.898104908141036,-77.02844874224846
BOG,Eldorado Airport,BOG,CO,4.698254049846344,-74.14647091252908
BOH,Bournemouth International Airport,BOH,GB,50.77552042194266,-1.8334650315035463
BOI,Boise Air Terminal (Gowen Field),BOI,US,43.561980054573766,-116.22449333217462
BOJ,Burgas Airport,BOJ,BG,42.56503539803495,27.51916343015612
BOK,Brookings State Airport,BOK,US,42.04937319117192,-124.28027798647611
BOL,Ballykelly Airport,BOL,GB,54.99821998950593,-6.995814854083213
BOM,Mumbai Airport,BOM,IN,19.085223644909572,72.85731368782419
BON,Flamingo International Airport,BON,BQ,12.129516942293144,-68.26791833919587
BOO,Bodo Airport,BOO,NO,67.265246569038,14.375511098956885
BAG,Loakan Airport,BAG,PH,16.375134355842743,120.61907802529583
BAH,Bahrain International Airport,BAH,BH,26.27011478380484,50.63801163847737
BAI,Buenos Aires Airport,BAI,CR,9.161594842247503,-83.33097847812104
BAJ,Bali Airport,BAJ,PG,-4.835763687085272,149.13518611199078
BAL,Batman Airport,BAL,TR,37.912617893934915,41.08680487672577
BAM,Lander County Airport,BAM,US,40.628437711715385,-116.92923225073653
BAN,Basongo Airport,BAN,CD,-4.314372232169064,20.43167420391982
BAO,Udorn Airport,BAO,TH,17.38354006980884,102.79436066907024
BAP,Baibara Airport,BAP,PG,-10.3361585681525,149.75397393003726
BAQ,E Cortissoz Airport,BAQ,CO,10.891927645821852,-74.77671978800284
BAR,Baker Army Air Field,BAR,US,55.33053259828914,-133.59657405210348
BAS,Balalae Airport,BAS,SB,-6.984355504203225,155.88462878563564
BAT,Barretos Airport,BAT,BR,-20.551996523886054,-48.546713582551604
BAV,Baotou Airport,BAV,CN,40.66281405380806,109.98497892158457
BAW,Biawonque Airport,BAW,GA,-0.6703606021176846,146.35061361002496
BAX,Barnaul Airport,BAX,RU,53.36528909859054,83.75496930103876
BAY,Baia Mare Airport,BAY,RO,47.647170838671755,23.4683506956981
BAZ,Barbelos Airport,BAZ,BR,-0.9682986297163712,-62.92795350267484
BBA,Teniente Vidal Airport,BBA,CL,-45.916838035097406,-71.69420760425189
BBB,Benson Municipal Airport,BBB,US,45.3152315579081,-95.59800505765311
BBC,Bay City Airport,BBC,US,28.980205780418963,-95.96470425381276
BBD,Curtis Field,BBD,US,31.128795463102797,-99.3279645332079
BBE,Big Bell Airport,BBE,AU,-17.337702670288884,117.58812693958932
BBF,Burlington Airport,BBF,US,42.49627929875502,-71.17854881248344
BBG,Butaritari Airport,BBG,KI,3.162726992580632,172.75250494103415
BBH,Barth,BBH,DE,54.333587941750324,12.702474191008832
BBI,Bhubaneswar Airport,BBI,IN,20.242599199768232,85.82334865720453
BBJ,Bitburg Air Base,BBJ,DE,49.94473036224815,6.566096490659623
BBK,Kasane Airport,BBK,BW,-17.818986827511957,25.152847807299786
BBL,Babolsar Airport,BBL,IR,36.64637936899001,52.672011237455905
BBM,Battambang Airport,BBM,KH,13.115003956499262,103.20115990584704
BBN,Bario Airport,BBN,MY,3.6783889860002583,115.4681864853791
BBO,Berbera Airport,BBO,SO,10.41637230976513,45.011564762503916
BBP,Bembridge Airport,BBP,GB,50.67811850928369,-1.082890207525556
BBQ,Barbuda Airport,BBQ,AG,17.55542690291409,-61.76484741910254
BBR,Baillif Airport,BBR,GP,16.014170811038618,-61.7362016057235
BBS,Blackbushe Airport,BBS,GB,51.331289499612005,-0.8479775370497504
BBT,Berberati Airport,BBT,CF,4.216969465736451,15.790716049699771
BBU,Baneasa Airport,BUH,RO,44.495902555640875,26.10395677186594
BBV,Nero Mer Airport,BBV,CI,4.663876427093201,-6.9499778814500806
BBW,Broken Bow Airport,BBW,US,41.3962022008436,-99.6316279135175
BBX,Wings Field,BBX,US,40.13569420461233,-75.26373276639225
BBY,Bambari Airport,BBY,CF,5.84416940105137,20.655128965258662
BBZ,Zambezi Airport,BBZ,ZM,-13.538993071869681,23.113117679607615
BCA,Baracoa Airport,BCA,CU,20.34573164114084,-74.49597169235864
BCB,Virginia Tech Airport,BCB,US,37.230797675132976,-80.414624306309
BCC,Bear Creek Airport,BCC,US,45.17772277444281,-109.09689040494283
BCD,Silay International,BCD,PH,10.639826217330327,122.93382913501316
BCE,Bryce Airport,BCE,US,37.700622482476064,-112.13357201936299
BCF,Bouca Airport,BCF,CF,6.74944267364486,18.420593304701264
BCG,Bemichi Airport,BCG,GY,6.54890746583964,-58.5448298669809
BCH,English Madeira Airport,BCH,TL,-8.496964502039194,126.40021844068633
BCI,Barcaldine Airport,BCI,AU,-23.56002378719072,145.30209761015797
BCJ,Baca Grande Airport,BCJ,US,38.9955068208,-105.99719346524013
BCK,Bolwarra Airport,BCK,AU,-17.400728240855177,144.16764417015386
BCL,Barra Colorado Airport,BCL,CR,10.82890207525556,-82.96428611215056
BCM,Bacau Airport,BCM,RO,46.5929277251857,26.883178903326844
BCN,Barcelona Airport,BCN,ES,41.29306975947099,2.0798367850550763
BCO,Bako Airport,BCO,ET,5.781144257371901,36.55470798504468
BCP,Bambu Airport,BCP,PG,-5.855628750931359,146.48811897839565
BCQ,Brack Airport,BCQ,LY,27.67959091338138,14.220812436897972
BCR,Boca Do Acre Airport,BCR,BR,-8.754794751697066,-67.3798366527433
BCS,Southern Sea Plane,BCS,US,29.96569279462508,-89.9944837116288
BCT,Boca Raton Public Airport,BCT,US,26.34459970425112,-80.08230828243119
BCU,Bauchi Airport,BCU,NG,10.364806089078826,9.803308190243126
BCV,Belmopan Airport,BCV,BZ,17.263217749842603,-88.7798096998229
BCW,Benguera Island Airport,BCW,MZ,-21.886987733016312,35.42598165865964
BCX,Beloretsk Airport,BCX,RU,53.93251581859259,58.33856498423568
BCY,Bulchi Airport,BCY,ET,6.2165918688486625,36.66929806874999
BCZ,Bickerton Island Airport,BCZ,AU,-13.785364825421212,137.8020854486204
BDA,L.F. Wade International Airport,BDA,BM,32.36065764595503,-64.68693211962822
BDB,Bundaberg Airport,BDB,AU,-24.906476053748257,152.32656468092256
BDC,Barra Do Corda Airport,BDC,BR,-5.471746933254078,-45.263667044769086
BDD,Badu Island Airport,BDD,AU,-10.152812385167262,142.18520908431435
BDE,Baudette Airport,BDE,US,48.71860212320414,-94.60679434492252
BDF,Rinkenberger Airport,BDF,US,41.1784762606711,-89.64497610161007
BDG,Blanding Airport,BDG,US,37.61467821214979,-109.48077435705423
BDH,Bandar Lengeh Airport,BDH,IR,26.545134058282695,54.883626490706035
BDI,Bird Island Airport,BDI,SC,-3.7184962836933964,55.22167304329748
BDJ,Sjamsudin Noor Airport,BDJ,ID,-3.4721243166984546,114.75198650938991
BDK,Soko Airport,BDK,CI,8.032868515862459,-2.796033986279923
BDL,Bradley International Airport,HFD,US,41.934779692372025,-72.67969461845802
BDM,Bandirma Airport,BDM,TR,40.313309858883926,27.97752888761921
BDN,Talhar Airport,BDN,PK,24.63145507172311,68.90390457357243
BDO,Husein Sastranegara Airport,BDO,ID,-6.9041413357037715,107.57855301282733
BDP,Bhadrapur Airport,BDP,NP,26.52794588723636,88.08653183868826
BDQ,Tehini Airport,BDQ,IN,22.32816501943307,73.22400605379467
BDR,Igor I. Sikorsky Memorial Airport,BDR,US,41.16128808962476,-73.12087702751664
BDS,Casale Airport,BDS,IT,40.65708352509442,17.950768497358183
BDT,Gbadolite Airport,BDT,CD,4.079459401610699,22.454216160565654
BDU,Bardufoss Airport,BDU,NO,69.05287099937041,18.540913917120207
CML,Camooweal Airport,CML,AU,-19.938930696816758,138.1172030561681
CMM,Carmelita Airport,CMM,GT,17.458023282707828,-90.05177533838686
CMN,Mohammed V Airport,CAS,MA,33.36333283120749,-7.585961554505709
CMO,Obbia Airport,CMO,SO,5.3628848169414765,48.518067769172575
CMP,Campo Alegre Airport,CMP,BR,-9.803308190243126,-36.34844310229947
CMQ,Clermont Airport,CMQ,AU,-22.866745926056083,147.50225180598082
CMR,Colmar-Houssen Airport,CMR,FR,48.082619303922165,7.368237321880505
CMS,Scusciuban Airport,CMS,SO,10.296051697346185,50.23693951531964
CMT,Cameta Airport,CMT,BR,-2.2001580378042553,-49.49782425466505
CMU,Chimbu Airport,CMU,PG,-5.998868063110281,144.97550528480463
CMV,Coromandel Airport,CMV,NZ,-37.00161409262779,175.66885911284618
CMW,Ign Agramonte International Airport,CMW,CU,21.41716292567323,-77.84777774451567
CMX,Houghton County Airport,CMX,US,47.16588497390139,-88.48187001803777
CMY,Camp Mccoy Army Air Field,CMY,US,43.94586400668516,-90.77943637180334
CMZ,Caia Airport,CMZ,MZ,-17.85336487715192,35.40306295889966
CNA,Cananea Airport,CNA,MX,30.997017208351156,-110.32875600288965
CNB,Coonamble Airport,CNB,AU,-30.985556150923877,148.37887926519525
CNC,Coconut Island Airport,CNC,AU,-10.05540961873465,143.06756024205328
CND,Mihail Kogalniceanu Airport,CND,RO,44.34693271474831,28.487462273315902
CNE,Canon City Airport,CNE,US,38.44546827184429,-105.22942556101734
CNF,Tancredo Neves International Airport,BHZ,BR,-19.635263901412575,-43.963052177731505
CNG,Chateaubernard,CNG,FR,45.68192392387857,-0.3323155169496979
CNH,Claremont Municipal Airport,CNH,US,43.378633871588534,-72.33019383862846
CNI,Changhai Airport,CNI,CN,31.249119490616327,121.4384001973739
CNJ,Cloncurry Airport,CNJ,AU,-20.672317136305,140.50070685007077
CNK,Blosser Municipal Airport,CNK,US,39.56273695589664,-97.6663844138189
CNL,Sindal Airport,CNL,DK,57.479129111162145,10.221566776899904
CNM,Carlsbad Airport,CNM,US,32.33200841748141,-104.26113013295215
CNO,Chino Airport,CNO,US,33.976396950729495,-117.63397116929845
CNP,Neerlerit Inaat Airport,CNP,GL,70.7373664034248,-22.65475051459723
CNQ,Camba Punta Airport,CNQ,AR,-27.450407330876185,-58.75682527843975
CNR,Chanaral Airport,CNR,CL,-26.33314035437113,-70.5998610350541
CNS,Cairns Airport,CNS,AU,-16.88506603399214,145.75473424645472
CNT,Charata Airport,CNT,AR,-27.221225455918287,-61.23199704119316
CNU,Martin Johnson Airport,CNU,US,37.67770378271609,-95.44903863185513
CNV,Canavieiras Airport,CNV,BR,-15.670395437280828,-38.97831864975367
CNW,James Connall Airport,ACT,US,31.913748123277344,-97.12780350719588
CNX,Chiang Mai International Airport,CNX,TH,18.7700974996254,98.97272639447554
CNY,Canyonlands Field,CNY,US,38.754865595962116,-109.74433769674668
CNZ,Cangamba Airport,CNZ,AO,-11.504992619117504,19.00500990329694
COA,Columbia Airport,COA,US,38.027207977640224,-120.40708261383698
COB,Coolibah Airport,COB,AU,-15.550074824861882,130.93804586108106
COC,Concordia Airport,COC,AR,-31.30068400375534,-57.9947879029306
COD,Yellowstone Regional Airport,COD,US,44.51309072668722,-109.02240719204384
COE,Coeur D'Alene Airport,COE,US,47.68154718076443,-116.76306740860846
COF,Patrick Air Force Base,COI,US,28.34995178230333,-80.72975557423504
COG,Mandinga Airport,COG,CO,5.076406192583631,-76.66175637627798
COH,Cooch Behar Airport,COH,IN,26.33314035437113,89.4673570322439
COI,Merritt Island Airport,COI,US,28.31557373266336,-80.59797390438881
COJ,Coonabarabran Airport,COJ,AU,-31.340790874561655,149.27269148036146
COK,Kochi Airport,COK,IN,9.940817827482054,76.27214189545293
COL,Coll Island Airport,COL,GB,56.613959294280384,-6.611933036405932
COM,Coleman Airport,COM,US,31.827803852951075,-99.43109355948593
CON,Concord Airport,CON,US,43.195287688603294,-71.528049592313
COO,Cadjehoun Airport,COO,BJ,6.354101932974413,2.389234109172899
COP,Cooperstown Airport,COP,US,42.696813652786595,-74.93142357270362
COQ,Choibalsan Airport,COQ,MN,48.128453288347536,114.90095293518789
COR,Pajas Blancas Airport,COR,AR,-31.317872174801675,-64.19418861252517
COS,Peterson Field,COS,US,38.80643010910113,-104.70803624053525
COT,Cotulla Airport,COT,US,28.430165523915957,-99.23055920545436
COU,Columbia Regional Airport,COU,US,38.81216063781477,-92.2175600223062
COV,Covilha Airport,COV,PT,40.27893351679125,-7.494287609239445
COW,Coquimbo Airport,COW,CL,-32.8018332248245,-70.62850684843315
COX,Congo Town Airport,COX,BS,24.14444209333369,-77.57848387610957
COY,Coolawanyah Airport,COY,AU,-21.852609683376347,117.75429178171738
COZ,Constanza Airport,COZ,DO,18.896148640757986,-70.71445111875941
CPA,A. Tubman Airport,CPA,LR,4.3716681277953615,-7.694822817044665
CPB,Capurgana Airport,CPB,CO,8.628744464338128,-77.33211212255804
CPC,Chapelco Airport,CPC,AR,-40.0669381053324,-71.13271141296349
CPD,Coober Pedy Airport,CPD,AU,-29.048961879698894,134.75394960696212
CPE,Campeche International Airport,CPE,MX,19.830069434277803,-90.5044119746836
CPF,Cepu Airport,CPF,ID,-7.150513089255302,111.58353005531269
CPG,Carmen De Patagones Airport,CPG,AR,-40.8347025944606,-62.99670618686019
CPH,Kastrup Airport,CPH,DK,55.605553580314286,12.633719799276191
CPI,Cape Orford Airport,CPI,PG,-5.437369310500935,152.08592345608466
CPL,Chaparral Airport,CPL,CO,3.7127666087534017,-75.464273950613
CPM,Compton Airport,CPM,US,33.89045268040322,-118.24703528882046
CPN,Cape Rodney Airport,CPN,PG,-10.187189581033582,148.36741820776797
CPO,Desierto De Atacama Airport,CPO,CL,-27.26706114789095,-70.77747327423113
CPQ,Campinas International Airport,CPQ,BR,-23.004254709521366,-47.13150863180872
CPR,Casper Airport,CPR,US,42.90307853553181,-106.46129115896416
CPS,Bi-State Parks Airport,STL,US,38.565788884263235,-90.15491119485405
CPT,Cape Town International Airport,CPT,ZA,-33.9649393083968,18.6039394876865
CPU,Cururupu Airport,CPU,BR,-1.8048170836903972,-44.862594921611354
CPV,Joao Suassuna Airport,CPV,BR,-7.270834555447893,-35.895806466002725
CPX,Culebra Airport,CPX,PR,18.29454216356868,-65.3114572965775
CQA,Canarana Airport,CQA,BR,-13.579099942675997,-52.26520858558453
CQD,Shahre Kord Airport,CQD,IR,32.2919015466751,50.84427310612801
CQF,Calais Dunkerque,CQF,FR,50.95886660492789,1.953786070809314
CQM,Central Airport,CJI,ES,38.857998037334724,-3.987786310118081
CQP,Cape Flattery Airport,CQP,AU,-18.20286907207606,147.50225180598082
CQS,Costa Marques Airport,CQS,BR,-12.421725241590982,-64.24575654075876
CQT,Caquetania Airport,CQT,CO,1.615741012321754,-74.16365566848083
CRA,Craiova Airport,CRA,RO,44.318286901369284,23.88661098990217
CRB,Collarenebri Airport,CRB,AU,-29.55316302913465,148.58515097812966
CRC,Cartago Airport,CRC,CO,4.761279193525814,-75.92836481414786
CRD,Comodoro Rivadavia Airport,CRD,AR,-45.79078689396482,-67.46005039435593
CRE,Grand Strand Airport,MYR,US,33.8102389387906,-78.72439837354096
CRF,Carnot Airport,CRF,CF,4.979003426151018,15.933957069425986
CRG,Craig Municipal Airport,JAX,US,30.498543172534458,-81.66367466020756
CRH,Cherribah Airport,CRH,AU,-28.000447587379192,152.17186089622177
CRI,Crooked Island Airport,CRI,BS,22.74642531363714,-74.14647091252908
CRJ,Coorabie Airport,CRJ,AU,-31.902290480944647,132.30167946849576
CRK,Clark Field,NCP,PH,15.177651930177767,120.5503253411105
CRL,Brussels S Charleroi Airport,BRU,BE,50.45466204039755,4.457611544347986
CRM,National Airport,CRM,PH,12.47902113721728,124.58394819697489
CRO,Corcoran Airport,CRO,US,36.0963408200343,-119.54763991057428
CRP,Corpus Christi International Airport,CRP,US,27.771264004874,-97.50022640188
CRQ,Caravelas Airport,CRQ,BR,-17.750232435779314,-39.24760910306517
CRR,Ceres Airport,CRR,AR,-29.919855395105127,-61.827876404763416
CRS,Corsicana Airport,CRS,US,32.09709430626258,-96.46317145944029
CRT,Crossett Municipal Airport,CRT,US,33.12841871998866,-91.96545774004103
CRU,Carriacou Island Airport,CRU,GD,12.473291462277286,-61.46691456750658
CRV,Crotone Airport,CRV,IT,38.9955068208,17.079871566857367
CRW,Yeager Airport,CRW,US,38.3709850589453,-81.58919144730858
CRX,Roscoe Turner Airport,CRX,US,34.89885839436932,-88.59646693193224
CRY,Carlton Hill Airport,CRY,AU,-15.469861083249253,128.61757105283928
CRZ,Turkmenabad Airport,CRZ,TM,39.081451091126276,63.62123136380947
CSA,Colonsay Airport,CSA,GB,56.08110891637101,-6.199403270915502
CSB,Caransebes Airport,CSB,RO,45.412633470567066,22.219303756894114
CSC,Canas Airport,CSC,CR,10.765877358462914,-85.47957157589946
CSD,Cresswell Downs Airport,CSD,AU,-17.96795666840452,135.91704886034526
CSE,Crested Butte Airport,CSE,US,38.863728566048366,-106.98268047944624
CSF,Creil Airport,CSF,FR,49.24572197239988,2.486636875605512
CSG,Columbus Airport,CSG,US,32.50962407175301,-84.94099066927645
CSH,Solovki Airport,CSH,RU,65.02497867221966,35.73537898277746
CSI,Casino Airport,CSI,AU,-28.888530981379052,153.0599494128635
CSJ,Cape St. Jacques Airport,CSJ,VN,10.032490918974672,111.00484227788336
CSK,Cap Skirring Airport,CSK,SN,12.398806541831004,-16.747555542979566
CSL,O'Sullivan Army Air Field,CSL,US,35.23117441824712,-120.6362627812476
CSM,Sherman Airport,CSM,US,35.534841213651305,-96.93299968187794
CSN,Carson City Airport,CSN,US,39.190314061212526,-119.7309895086541
CSO,Cochstedt Airport,CSO,DE,51.8526788200941,11.41904920256488
CSP,Coast Guard Heliport,CSP,US,58.18959172824853,-136.62751147743165
CSQ,Creston Municipal Airport,CSQ,US,41.063886176965795,-94.36614628989545
CSR,Casuarito Airport,CSR,CO,5.832710478058204,-68.13041297082518
CSS,Cassilandia Airport,CSS,BR,-18.987821732250605,-51.97872996122668
CST,Castaway Airport,CST,FJ,-17.503860682227785,177.50232777288772
CSU,Santa Cruz Do Sul Airport,CSU,BR,-29.68494469898088,-52.41417842647709
CSV,Crossville Memorial Airport,CSV,US,35.94737097914173,-85.08423339654995
CSW,Colorado Do Oeste Airport,CSW,BR,-13.023330865006644,-61.16324435700781
CSX,Changsha Airport,CSX,CN,28.183793770364428,113.22218805984713
CSY,Cheboksary Airport,CSY,RU,56.13267684460461,47.269017415274
CSZ,Brigadier Hector Ruiz,CSZ,AR,-37.43706255787819,-67.87831068856
CTA,Fontanarossa Airport,CTA,IT,37.46571178635181,15.068790667638812
CTB,Cut Bank Airport,CTB,US,48.63265785287788,-112.32837584468092
CTC,Catamarca Airport,CTC,AR,-28.453084223675937,-65.77555499030153
CTD,Chitre Airport,CTD,PA,7.964113270356173,-80.43181589244992
CTE,Carti Airport,CTE,PA,9.316293504306413,-79.09682126822507
CTF,Coatepeque Airport,CTF,GT,14.765122164687337,-91.91388981180744
CTG,Rafael Nunez Airport,CTG,CO,10.445020684465101,-75.51010451994378
CTH,Chestercounty Carlson Airport,CTH,US,39.980993835006124,-75.83096631658347
CTI,Cuito Cuanavale Airport,CTI,AO,-15.171923109011418,19.17116791523584
CTK,Canton Airport,CTK,US,43.2984201299759,-96.57776837333476
CTL,Charleville Airport,CTL,AU,-26.413354095983763,146.26466250950952
CTM,Chetumal Airport,CTM,MX,18.477888346553915,-88.3329035922398
CTN,Cooktown Airport,CTN,AU,-15.446942383489274,145.1875006962635
CTO,Peconic River Airport,CTO,US,38.62881445482953,-77.68161973257678
CTP,Carutapera Airport,CTP,BR,-1.2547775742393332,-46.01423994775637
CTQ,Do Palmar Airport,CTQ,BR,-18.850311241238032,-50.09943073185436
CTR,Cattle Creek Airport,CTR,AU,-17.584074423840413,131.00107484674194
CTS,Chitose Airport,SPK,JP,42.794218980540144,141.66954346235673
CTT,Le Castellet Airport,CTT,FR,43.24685561683689,5.786873932311895
CTU,Chengdu Airport,CTU,CN,30.699077526566033,103.95172939373974
CTW,Cottonwood Airport,CTW,US,34.73270038243042,-112.0304361628958
CTX,Cortland Airport,CTX,US,42.59941174012763,-76.18046709641303
CTY,Cross City Airport,CTY,US,29.62764624203364,-83.1132593681377
CTZ,Sampson County Airport,CTZ,US,34.996263722122876,-78.36343653628413
CUA,Ciudad Constitucion Airport,CUA,MX,25.03252548733355,-111.66374379692532
CUB,Owens Field,CAE,US,33.93629007992318,-81.11363269615727
CUC,Camilo Dazo Airport,CUC,CO,7.929736074489853,-72.50780607780547
CUD,Caloundra Airport,CUD,AU,-26.802965161714216,153.15162421190342
CUE,Cuenca Airport,CUE,EC,-2.8705184798393812,-78.98223118451976
CUF,Levaldigi Airport,CUF,IT,44.54746706877989,7.626068425312024
CUG,Cudal Airport,CUG,AU,-32.00542292231725,151.00302428393582
CUH,Cushing Municipal Airport,CUH,US,35.98175073632899,-96.76111114122541
CUI,Currillo Airport,CUI,CO,4.663876427093201,-71.99787781475067
CUJ,Culion Airport,CUJ,PH,11.831578114281664,120.00027654687102
CUK,Caye Caulker Airport,CUK,BZ,17.761691785659302,-87.99485703964835
CUL,Fedl De Bachigualato Airport,CUL,MX,24.763236741569333,-107.46969345783567
CUM,Cumana Airport,CUM,VE,10.445020684465101,-64.18846491400069
CUN,Cancun Airport,CUN,MX,21.033280681109126,-86.8661341283579
CUO,Caruru Airport,CUO,CO,1.0313239868392523,-71.23010991052787
CUP,Carupano Airport,CUP,VE,10.657015242150312,-63.26026952655264
CUQ,Coen Airport,CUQ,AU,-13.768175800601227,143.11340447176238
CUR,Aeropuerto Hato,CUR,CW,12.192541659085789,-68.95547250180603
CUS,Columbus Municipal Airport,CUS,US,31.827803852951075,-107.63012094106092
CUT,Cutral Airport,CUT,AR,-38.90383543685468,-68.99557937261234
CUU,Gen Fierro Villalobos Airport,CUU,MX,28.64788975654116,-106.08886826428004
CUV,Casigua Airport,CUV,VE,11.063815332700747,-70.94936181488366
CUW,Cube Cove Airport,CUW,US,57.93748944598336,-134.7482122480593
CUX,Cuddihy Field,CRP,US,27.748345305114018,-97.3340683899411
CUY,Cue Airport,CUY,AU,-27.450407330876185,117.92044296346712
CUZ,Velazco Astete Airport,CUZ,PE,-13.533263396929687,-71.95777094394434
CVA,Civic Arena Heliport,PIT,US,40.49665604186916,-80.23128153841834
CVB,Chungribu Airport,CVB,PG,-4.801386491218953,144.70049454806323
CVC,Cleve Airport,CVC,AU,-33.70137596870435,136.50146716648823
CVE,Covenas Airport,CVE,CO,9.396508099692689,-75.72783046011628
CVF,Courchevel Airport,CVF,FR,45.39544529952072,6.634851309279087
CVG,Cincinnati/Northern Kentucky Airport,CVG,US,39.0470747490336,-84.66597310234587
CVH,Caviahue Airport,CVH,AR,-37.918348422648556,-70.99519921440361
CVI,Caleta Olivia Airport,CVI,AR,-46.421039184533164,-67.41421299483598
CVJ,Cuernavaca Airport,CVJ,MX,18.913336811804324,-99.24775079159527
CVL,Cape Vogel Airport,CVL,PG,-9.470992166365324,150.5045570783083
CVM,Ciudad Victoria Airport,CVM,MX,23.70899362808328,-98.96127216723742
CVN,Clovis Municipal Airport,CVN,US,34.4233030583126,-103.07510876471444
CVO,Albany Airport,CVO,US,44.6276842254871,-123.11144137419018
CVQ,Carnarvon Airport,CVQ,AU,-24.88355735398828,113.66909416743023
CVR,Hughes Airport,CVR,US,41.212852602763775,-86.41349749206115
CVS,Cannon Air Force Base,CVN,US,34.383196187506286,-103.31574998955233
CVT,Coventry Airport,CVT,GB,52.36834102695714,-1.4782311616394144
CVU,Corvo Island (Azores) Airport,CVU,PT,39.69451521064828,-31.094419121010123
CWA,Central Wisconsin Airport,AUW,US,44.77665065128508,-89.65643715903735
CWB,Afonso Pena Airport,CWB,BR,-25.53099952315025,-49.17696587311995
CWC,Chernivtsi International Airport,CWC,UA,48.2659654869074,25.972176809567006
CWF,Chennault International Airport,LCH,US,30.263629061315623,-93.1457485795651
CWG,Callaway Gardens Airport,CWG,US,32.83620956691717,-84.87796851380473
CWI,Clinton Airport,CWI,US,41.825920137380365,-90.3267997355066
CWL,Cardiff Airport,CWL,GB,51.3943150701783,-3.3460736024526927
CWO,Ft. Wolter Air Force Base,MWL,US,32.79610269611086,-98.113290521402
CWP,Campbellpore Airport,CWP,PK,33.76440153927064,72.43905339362013
CWR,Cowarie Airport,CWR,AU,-27.719697784187694,138.33493582652977
CWS,Center Island Airport,CWS,US,47.48101282673286,-122.83069327854597
CWT,Cowra Airport,CWT,AU,-33.85607633831055,148.64816630341218
CWW,Corowa Airport,CWW,AU,-35.970289678901715,146.35061361002496
CWX,Cochise County Airport,CWX,US,32.240333618441504,-109.89330412254465
CXA,Caicara De Oro Airport,CXA,VE,7.528665658879412,-66.14797788498565
CXB,Coxs Bazar Airport,CXB,BD,21.445810446599555,91.97118826875467
CXC,Chitina Airport,CXC,US,61.58150465121189,-144.4254701509435
CXF,Coldfoot Airport,CXF,US,67.265246569038,-150.16650369552767
CXH,Coal Harbour Sea Plane Base,YVR,CA,49.26291014344622,-123.11144137419018
CXI,Christmas Island Airport,CXI,KI,1.9652452072458912,-157.44879674708193
CXJ,Campo Dos Bugres Airport,CXJ,BR,-29.16928249211784,-51.18231965871944
CXL,Calexico International Airport,CXL,US,32.66432444135921,-115.51401705470988
CXN,Candala Airport,CXN,SO,11.49926294417751,49.921811662488174
CXO,Montgomery County Airport,CXO,US,30.315196989549218,-95.44903863185513
CXP,Tunggul Wulung Airport,CXP,ID,-7.734930541624626,109.00522243609208
CXQ,Christmas Creek Airport,CXQ,AU,-18.867499412284367,125.91893599101056
CXR,Cam Rahn Airport,NHA,VN,11.992006451280568,109.22867207478906
CXT,Charters Towers Airport,CXT,AU,-20.047793666903008,146.2703998684123
CXY,Cat Cays Airport,CXY,BS,25.416407731897653,-77.813401402423
CYA,Les Cayes Airport,CYA,HT,18.26589464264235,-73.78550224508308
CYB,Gerrard-Smith Airport,CYB,KY,19.68109959338524,-79.88177392839962
CYC,Caye Chapel Airport,CYC,BZ,17.664288165453044,-88.8313776280565
CYE,Crystal Lake Airport,CYE,US,42.23271937415715,-88.31571200609888
CYF,Chefornak Sea Plane Base,CYF,US,60.21213368489437,-164.19823942072676
CYG,Corryong Airport,CYG,AU,-36.2510411896405,147.90332051404394
CYI,Chiayi Airport,CYI,TW,23.462621874531752,120.38416049898242
CYL,Coyoles Airport,CYL,HN,14.994305747192529,-86.49943493219826
CYM,Chatham Sea Plane Base,CYM,US,57.4963138671139,-134.99459083180002
CYO,Cayo Largo Del Sur Airport,CYO,CU,21.611968458538456,-81.51470823440958
CYP,Calbayog Airport,CYP,PH,12.072221046666845,124.54384132616856
CYR,Colonia Airport,CYR,UY,-34.17120419114201,-57.4963138671139
CYS,Cheyenne Airport,CYS,US,41.15555756091112,-104.81117209700244
CYT,Yakataga Intermediate Airport,CYT,US,60.0746214863345,-142.4888792948131
CYU,Cuyo Airport,CYU,PH,10.880468295941863,121.00296197740724
CYW,Celaya Airport,CYW,MX,20.546265995172416,-100.897869853557
CYX,Chersky Airport,CYX,RU,68.74920761906081,161.35063793310007
CYZ,Cauayan Airport,CYZ,PH,16.925172904798455,121.7592551638244
CZA,Chichen Itza Airport,CZA,MX,20.66658831513865,-88.5620837596504
CZB,Carlos Ruhl Airport,CZB,BR,-28.642160935374815,-53.55436581028942
CZC,Copper Centre Airport,CZC,US,61.965388603323284,-145.29637391163348
CZE,Coro Airport,CZE,VE,11.413319527624884,-69.6773961763197
CZF,Cape Romanzof Airport,CZF,US,61.77630847652982,-166.0317080807683
CZH,Corozal Airport,CZH,BZ,18.380486433894948,-88.41311733385243
CZJ,Corazon De Jesus Airport,CZJ,PA,9.012625855128585,-77.97955258417272
CZK,Cascade Locks/Stevens Airport,CZK,US,45.664735752832236,-121.89677419257345
CZL,Mohamed Boudiaf Airport,CZL,DZ,36.27395647430589,6.634851309279087
CZM,Cozumel Airport,CZM,MX,20.51188965307974,-86.9291562838296
CZN,Chisana Field,CZN,US,62.0685176296013,-142.0476900555653
CZO,Chistochina Airport,CZO,US,62.56126113670436,-144.66611137578138
CZP,Cape Pole Airport,CZP,US,55.966518832665706,-133.77990998980493
CZS,Campo Internacional Airport,CZS,BR,-7.585961554505709,-72.7828304749252
CZT,Carrizo Springs Airport,CZT,US,28.51610979424223,-99.86654543983092
CZU,Corozal Airport,CZU,CO,9.333482529126396,-75.28092435253318
CZW,Rudniki Airport,CZW,PL,50.81562729274897,19.102413523503202
CZX,Changzhou Airport,CZX,CN,31.696025598199434,119.97163073349199
CZY,Cluny Airport,CZY,AU,-24.516863280470513,139.53814195071922
CZZ,Campo Airport,CZZ,US,37.09901600528676,-102.58236525761139
DAA,Davison Army Air Field,DAA,US,37.49435759973085,-78.74732048839552
DAB,Daytona Beach Regional Airport,DAB,US,29.180740134450538,-81.05061054068555
DAC,Hazrat Shahjalal Intl Airport,DAC,BD,23.777748019815924,90.38982189097831
DAD,Da Nang Airport,DAD,VN,16.037089510798594,108.20880871849026
DAE,Daparizo Airport,DAE,IN,27.496244730396143,94.33750047651642
DAF,Daup Airport,DAF,PG,-4.73836092065266,144.95259683032842
DAG,Barstow-Daggett Airport,DAG,US,34.245687404041,-117.33030095879968
DAH,Dathina Airport,DAH,YE,13.865578567033841,46.134560560175316
DAI,Darjeeling Airport,DAI,IN,27.03214874421941,88.26987460657892
DAJ,Dauan Island Airport,DAJ,AU,-9.436614970499004,142.5347098641439
DAK,Dakhla Oasis Airport,DAK,EG,25.410678910731306,29.00312448017894
DAL,Love Field,DFW,US,32.84194009563081,-96.85278594026532
DAM,Damascus International Airport,DAM,SY,33.40917023072745,36.520328227857426
DAN,Danville Municipal Airport,DAN,US,36.57189615609102,-79.3317387945385
DAO,Dabo Airport,DAO,PG,-8.433938931472902,147.85175258581035
DAP,Darchula Airport,DAP,NP,29.6620259992209,80.50056857663526
DAR,Dar Es Salaam International Airport,DAR,TZ,-6.875493387890622,39.20750223225886
DAS,Great Bear Lake Airport,DAS,CA,66.69801984903594,-119.70806739379954
DAT,Datong Airport,DAT,CN,40.0554804629997,113.48575139953958
DAU,Daru Airport,DAU,PG,-9.092840450514862,143.19361821337503
DAV,Enrique Malek Airport,DAV,PA,8.382372710786598,-82.43143573424119
DAX,Daxian Airport,DAX,CN,31.294953475041698,107.50406979992835
DAY,James Cox Dayton International Airport,DAY,US,39.89505297977444,-84.21906699476277
DAZ,Darwaz Airport,DAZ,AF,38.462656442890626,70.88633965941196
DBA,Dalbandin Airport,DBA,PK,28.882803867759996,64.4176450814113
DBB,Al Alamain International Airport,DBB,EG,30.922530580357584,28.796859597433723
DBD,Dhanbad Airport,DBD,IN,23.777748019815924,86.45360436286747
DBM,Debra Marcos Airport,DBM,ET,10.318969543332516,37.74645988199602
DBN,Dublin Municipal Airport,DBN,US,32.561191999986605,-82.98147769829149
DBO,Dubbo Airport,DBO,AU,-32.22314544739517,148.57941361922684
DBP,Debepare Airport,DBP,PG,-6.285347114354949,141.90446098867014
DBQ,Dubuque Municipal Airport,DBQ,US,42.404607914809695,-90.71067685742882
DBS,Dubois Airport,DBS,US,44.16358653176308,-112.23097051692737
DBT,Debra Tabor Airport,DBT,ET,11.963358930354243,38.027207977640224
DBU,Dambula Oya Tank Airport,DBU,LK,7.855251154043571,80.65526553114688
DBV,Dubrovnik Airport,DBV,HR,42.55930486932131,18.26589464264235
DBY,Dalby Airport,DBY,AU,-27.152469356638353,151.27231132215275
DCA,Ronald Reagan National Airport,WAS,US,38.84653697990744,-77.03417244077292
DCF,Cane Field Airport,DOM,DM,15.498508604175578,-61.32940236894672
DCG,Dubai Creek Spb,DXB,AE,25.238790370078764,55.33626312700278
DCI,Decimomannu Air Base,DCI,IT,39.35074154443778,8.97251898432227
DCK,Dahl Creek Airport,DCK,US,66.94439160258747,-156.89876161322078
DCM,Mazamet Airport,DCM,FR,43.55052241224107,2.2861016678002914
DCN,Curtin Airport,DRB,AU,-17.584074423840413,123.83336504870384
DCR,Decatur Hi-Way Airport,DCR,US,40.82897206574696,-84.92953644203833
DCT,Duncan Town Airport,DCT,BS,22.247951277820437,-75.7450220462572
DCU,Pyor Airport,DCU,US,34.59519159896514,-86.9807242120632
DDC,Dodge City Municipal Airport,DDC,US,37.75791752432871,-99.9639439373953
DDG,Dandong Airport,DDG,CN,39.99818200605246,125.00220166098978
DDI,Daydream Island Airport,DDI,AU,-20.27124672069456,148.8200548440647
DDM,Dodoima Airport,DDM,PG,-8.485505152159204,145.17031594031172
DDN,Delta Downs Airport,DDN,AU,-16.919444083632108,141.3028579265754
DDP,Dorado Beach Airport,DDP,PR,18.477888346553915,-66.14797788498565
DDU,Dadu Airport,DDU,PK,26.74567011986156,67.75225954742741
DEA,Dera Ghazi Khan Airport,DEA,PK,29.95996226591144,70.49099464987327
DEB,Debrecen Airport,DEB,HU,47.4867433554465,21.617697279704803
DEC,Decatur Airport,DEC,US,39.832027409208145,-88.86575397014917
DED,Dehra Dun Airport,DED,IN,30.315196989549218,78.03685104111996
DEE,Mendeleyevo Airport,DEE,RU,44.026077748297794,145.8578701029219
DEF,Dezful Airport,DEF,IR,32.42941033014038,48.38628609932635
DEH,Decorah Municipal Airport,DEH,US,43.2984201299759,-91.79929972810214
DEI,Denis Island Airport,DEI,SC,-3.8044397002460206,55.66857915088058
DEL,Indira Gandhi International Airport,DEL,IN,28.57340483609488,77.10293195514744
DEM,Dembidolo Airport,DEM,ET,8.565718893771836,34.887400752036626
DEN,Denver International Airport,DEN,US,39.84921558025448,-104.71376676924889
DEO,Hyatt Regency H/P,DEO,US,42.295744944723445,-83.16482729637131
DEP,Deparizo Airport,DEP,IN,27.347274889503577,94.00518445263863
DER,Derim Airport,DER,PG,-6.102000504482889,147.0839983419659
DES,Desroches Airport,DES,SC,-5.683741490939288,53.68614406504106
DET,Detroit City Airport,DTT,US,42.41606555714239,-83.01585404038416
DEZ,Al Jafrah Airport,DEZ,SY,35.32857633090609,40.15288237565866
DFI,Defiance Memorial Airport,DFI,US,41.281608702043705,-84.36230289184711
DFP,Drumduff Airport,DFP,AU,-16.002711461158626,143.33684728027018
DFW,Dallas/Ft. Worth International Airport,DFW,US,32.893508023864406,-97.02467448091787
DGA,Dangriga Airport,DGA,BZ,17.18300400822997,-88.5620837596504
DGB,Danger Bay Airport,DGB,US,58.08073217325687,-152.74481814493745
DGC,Degahbur Airport,DGC,ET,8.227674048727685,43.58489875433375
CAT,Cat Island Airport,CAT,BS,24.310598397725297,-75.45281289318572
CAU,Caruaru Airport,CAU,BR,-8.250591894714018,-35.91299463704906
CAV,Cazombo Airport,CAV,AO,-11.90033335978795,22.866745926056083
CAW,Bartolomeu Lisandro Airport,CAW,BR,-21.75520777071738,-41.29879687309004
CAX,Carlisle Airport,CAX,GB,54.93519441893963,-2.8074931227165
CAY,Rochambeau Airport,CAY,GF,4.812845414212118,-52.36261391333808
CAZ,Cobar Airport,CAZ,AU,-31.53559811497417,145.79484111726103
CBA,Corner Bay Airport,CBA,US,57.7140398072864,-135.19512518583159
CBB,J Wilsterman Airport,CBB,BO,-17.429375761781504,-66.17089316965104
CBC,Cherrabun Airport,CBC,AU,-18.91906563297067,125.55223679485091
CBD,Car Nicobar Airport,CBD,IN,9.144406671201166,92.81916308440093
CBE,Wiley Ford Airport,CBE,US,39.61430146903565,-78.76450524434728
CBF,Council Bluffs Municipal Airport,CBF,US,41.26442053099737,-95.86156839734556
CBG,Cambridge Airport,CBG,GB,52.19645590139918,0.1833464898101414
CBH,Boudghene B.Ali Lotfi Airport,CBH,DZ,31.644457669965835,-2.2574537199871423
CBI,Cape Barren Island Airport,CBI,AU,-40.3362285586439,148.1668838537364
CBJ,Cabo Rojo Airport,CBJ,DO,17.927849797598203,-71.64837020473193
CBK,Colby Municipal Airport,CBK,US,39.396578943957735,-101.04683627935496
CBL,Ciudad Bolivar Airport,CBL,VE,8.124541607355079,-63.5352870934832
CBM,Columbus Air Force Base,UBS,US,33.49511108595913,-88.41311733385243
CBN,Penggung Airport,CBN,ID,-6.755172348584854,108.53539421365441
CBO,Awang Airport,CBO,PH,7.196349635001611,124.17141843148445
CBP,Coimbra Airport,CBP,PT,40.19871977517862,-8.411020231712923
CBQ,Calabar Airport,CBQ,NG,4.961814401331035,8.34799466114663
CBR,Canberra Airport,CBR,AU,-35.31138815985975,149.19821509765166
CBS,Oro Negro Airport,CBS,VE,10.381995113898808,-71.41345950860769
CBT,Catumbela Airport,CBT,AO,-12.48474995838363,13.487426851183377
CBU,Drewitz,CBU,DE,51.88705857728136,14.535938582182144
CBV,Coban Airport,CBV,GT,15.469861083249253,-90.40701347711922
CBW,Campo Mourao Airport,CBW,BR,-24.006931602321114,-52.351152855910804
CBX,Condobolin Airport,CBX,AU,-33.867533980643245,148.25283495425185
CBY,Canobie Airport,CBY,AU,-19.480565239353666,140.9304350318913
CBZ,Cabin Creek Airport,CBZ,US,55.382100526522734,-132.41627638239024
CCA,Chaffee Air Force Base,CCA,US,35.31138815985975,-94.29739360571011
CCB,Cable Airport,CCB,US,34.10817862057572,-117.6855254371537
CCC,Cayo Coco Airport,CCC,CU,22.511511202418305,-78.50667926355763
CCD,Century City Airport,LAX,US,34.06234122105577,-118.2642200447722
CCE,Grand Case Airport,SFG,MF,18.04817041001715,-63.11130310075466
CCF,Salvaza Airport,CCF,FR,43.21247585964963,2.3204790771100234
CCG,Crane County Airport,CCG,US,31.398085916414306,-102.34744773129796
CCH,Chile Chico Airport,CCH,CL,-46.55282085437939,-71.69993813296553
CCI,Concordia Airport,CCI,BR,-27.186847406278318,-52.04748606050662
CCJ,Kozhikode Airport,CCJ,IN,11.132569724433388,75.95128692900242
CCK,Cocos Islands Airport,CCK,CC,-12.169623813099458,96.92153862445066
CCL,Chinchilla Airport,CCL,AU,-26.75139894102791,150.63633874815451
CCM,Criciuma Airport,CCM,BR,-28.705184798393812,-49.36604258481882
CCN,Chakcharan Airport,CCN,AF,34.53216602839885,65.27135042577119
CCO,Carimagua Airport,CCO,CO,4.566473660660588,-71.33324576699506
CCP,Carriel Sur Airport,CCP,CL,-36.7724305101226,-73.05784804185576
CCQ,Cachoeira Airport,CCQ,BR,-12.60507142457622,-38.96113047870733
CCR,Buchanan Field,CCR,US,37.987101106833904,-122.05146431689589
CCS,Simon Bolivar Airport,CCS,VE,10.605449021464008,-66.98449847339378
CCT,Colonia Catriel Airport,CCT,AR,-39.5054384989494,-68.91536563099972
CCU,Netaji Subhas Chandra Airport,CCU,IN,22.64902169343088,88.45322420465874
CCV,Craig Cove Airport,CCV,VU,-16.2032458151902,167.50421490355302
CCW,Cowell Airport,CCW,AU,-33.63835381323264,136.83378319036603
CCX,Caceres Airport,CCX,BR,-16.07146585289127,-57.69684822114547
CCY,Charles City Municipal Airport,CCY,US,43.06350943385166,-92.68165088584107
CCZ,Chub Cay Airport,CCZ,BS,25.416407731897653,-77.87642355789471
CDA,Cooinda Airport,CDA,AU,-12.908739073754047,132.52513593738192
CDB,Cold Bay Airport,CDB,US,55.1987543435375,-162.71428520089313
CDC,Cedar City Airport,CDC,US,37.700622482476064,-113.09040639000091
CDD,Cauquira Airport,CDD,HN,15.320891242356689,-83.60027234652713
CDE,Caledonia Airport,CDE,PA,8.330806490100294,-77.54983806273054
CDG,Charles De Gaulle Airport,PAR,FR,49.00508074756199,2.549662232728393
CDH,Harrell Field,CDH,US,33.581055356285404,-92.83062414182821
CDI,Cachoeiro De Itapemirim Airport,CDI,BR,-20.8384751482439,-41.18420678938474
CDJ,Conceicao Do Araguaia Airport,CDJ,BR,-8.233403723667681,-49.280098314492555
CDK,Lewis Airport,CDK,US,29.129175621311525,-83.03304562652508
CDL,Candle Airport,CDL,US,65.90733666014776,-161.93505623924304
CDN,Woodward Field,CDN,US,34.26287557508734,-80.59797390438881
CDO,Cradock Airport,CDO,ZA,-32.137201177068896,25.60548444359653
CDP,Cuddapah Airport,CDP,IN,14.513021589969458,78.78742735920183
CDQ,Croydon Airport,CDQ,AU,-18.30027269228232,142.2539617684997
CDR,Chadron Airport,CDR,US,42.83432585134646,-103.0922935206662
CDS,Childress Airport,CDS,US,37.414143858118216,-100.21604621966047
CDT,Castellon Airport,CDT,ES,40.19871977517862,0.06875493868138298
CDU,Camden Airport,CDU,AU,-15.452671204655623,124.4177833548468
CDV,Mudhole Smith Airport,CDV,US,60.492881780538575,-145.46824879190768
CDW,Caldwell Wright Airport,CDW,US,40.82897206574696,-74.26106099623439
CDY,Cagayan De Sulu Airport,CDY,PH,6.995814854083213,118.47047809732825
CDZ,Cadiz Railway Station,CDZ,ES,36.52605875657106,-6.285347114354949
CEA,Cessna Aircraft Field,ICT,US,37.69489195376242,-97.32833786122745
CEB,Mactan International Airport,CEB,PH,10.330428893212506,123.907855091792
CEC,Mc Namara Field,CEC,US,41.77435220914677,-124.23443375676699
CED,Ceduna Airport,CED,AU,-32.137201177068896,133.7111573056196
CEE,Cherepovets Airport,CEE,RU,59.27821459892184,38.067314848446536
CEF,Westover Metro Airport,CEF,US,42.14677510383088,-72.61094193427266
CEG,Hawarden Airport,CEG,GB,53.16475474455897,-2.916355239029102
CEH,Chelinda Airport,CEH,MW,-10.553882800777703,33.804508410076956
CEI,Chiang Rai Airport,CEI,TH,19.881635654964107,99.83216909773824
CEK,Balandino Airport,CEK,RU,55.29615625619647,61.501290909599255
CEL,Cape Eleuthera Airport,CEL,BS,25.27889724088508,-76.32944035240017
CEM,Central Airport,CEM,US,65.56929010755631,-144.78070828967586
CEN,Ciudad Obregon Airport,CEN,MX,27.387381760309893,-109.83601249578659
CEO,Waku Kungo Airport,CEO,AO,-10.003843398048346,20.786908927557597
CEP,Concepcion Airport,CEP,BO,-16.23762386483017,-62.079978687028586
CEQ,Mandelieu Airport,CEQ,FR,43.53333424119474,7.047381074769517
CER,Maupertus Airport,CER,FR,49.64679409555762,-1.4610423502628425
CES,Cessnock Airport,CES,AU,-32.83620956691717,151.35252506376537
CET,Le Pontreau Airport,CET,FR,47.06275253252878,-0.8651662950654694
CEU,Oconee County Airport,CEU,US,34.68113586929141,-82.8325112724935
CEV,Mettle Field,CEV,US,39.64867781112832,-85.1300707960699
CEW,Bob Sikes Airport,CEW,US,30.762103097132325,-86.56246391785913
CEX,Chena Hot Springs Airport,CEX,US,65.04790078707423,-146.16154031342066
CEY,Calloway County Airport,CEY,US,36.612003026897334,-88.31571200609888
CEZ,Montezuma County Airport,CEZ,US,37.299553774412914,-108.62706901269434
CFA,Coffee Point Airport,CFA,US,58.212513843103096,-157.49464097679103
CFB,Cabo Frio Airport,CFB,BR,-22.929771496622376,-42.078019004550946
CFC,Cacador Airport,CFC,BR,-26.791505811834227,-50.935947905167914
CFD,Coulter Field,CFD,US,30.66470118447336,-96.3657729618759
CFE,Auvergne Airport,CFE,FR,45.78505636525118,3.1684566675206267
CFF,Cafunfo Airport,CFF,AO,-8.77198377651705,18.002334718044484
CFG,Cienfuegos Airport,CFG,CU,22.144818836447833,-80.40889377759535
CFH,Clifton Hills Airport,CFH,AU,-27.003501223293082,139.00529157280985
CFI,Camfield Airport,CFI,AU,-17.0340358748847,131.28754664091062
CFK,Aboubakr Belkaid Airport,CFK,DZ,36.210934318834184,1.3349916360170804
CFN,Donegal Airport,CFN,IE,55.04405397393129,-8.336536165040288
CFO,Confreza Airport,CFO,BR,-10.634096542390333,-51.56620019573626
CFP,Carpentaria Downs Airport,CFP,AU,-18.78728567067174,144.35098010785535
CFQ,Creston Airport,CFQ,CA,49.03372656094103,-116.49378037039153
CFR,Carpiquet Airport,CFR,FR,49.17123875950089,-0.44690706807845637
CFS,Coffs Harbour Airport,CFS,AU,-30.326654631881915,153.12296473814604
CFT,Morenci Airport,CFT,US,33.04820497837603,-109.29743158916358
CFU,Ioannis Kapodistrias Airport,CFU,GR,39.59711329798931,19.916013704604072
CFV,Coffeyville Municipal Airport,CFV,US,37.03026332110141,-95.61519664379404
CGA,Craig Sea Plane Base,CGA,US,55.47377532556265,-133.14393741580673
CGB,M. Rondon Airport,CGB,BR,-15.65320726623449,-56.115485258463686
CGC,Lumbala N Guimbo Airport,CGC,PG,-5.46028758337409,148.51638463356596
CGD,Changde Airport,CGD,CN,29.066150050745232,111.58353005531269
CGE,Cambridge Airport,CGE,US,38.565788884263235,-76.08306859884864
CGF,Cuyahoga County Airport,CLE,US,41.55089915535522,-81.48032506212775
CGG,Casiguran Airport,CGG,PH,16.082925202771257,122.01709480499238
CGH,Congonhas Airport,SAO,BR,-23.628779886470653,-46.65595329575199
CGI,Cape Girardeau Airport,CGI,US,37.21934003280028,-89.57049288871109
CGJ,Chingola Airport,CGJ,ZM,-12.519128008023594,27.885855796126595
CGK,Soekarno-Hatta International Airport,JKT,ID,-6.119189102416049,106.65036445556845
CGM,Mambajao Airport,CGM,PH,9.253268787513766,124.7099925079183
CGN,Cologne/Bonn Airport,CGN,DE,50.861464692268925,7.1447838412021305
CGO,Zhengzhou Airport,CGO,CN,34.79572595299671,113.65190941147848
CGP,Patenga Airport,CGP,BD,22.253680098986788,91.82794554148117
CGQ,Changchun Airport,CGQ,CN,43.882838436118874,125.31733292891583
CGR,Campo Grande Internacional Airport,CGR,BR,-20.466052253559784,-54.67163449434177
CGS,College Park Airport,CGS,US,33.66126909789803,-84.44824716217339
CGT,Chinguitti Airport,CGT,MR,20.44886408251345,-12.364429345964684
CGU,Ciudad Guayana Airport,CGU,VE,8.30215811540032,-62.733149677356906
CGV,Caiguna Airport,CGV,AU,-32.26898284691512,125.47202305323827
CGX,Merrill C Meigs Field,CHI,US,41.854565950759394,-87.60524938901249
CGY,Lumbia Airport,CGY,PH,8.411020231712923,124.61259401035392
CGZ,Casa Grande Municipal Airport,CGZ,US,32.88204696643712,-111.7496880672516
CHA,Lovell Field,CHA,US,35.03637059292919,-85.19882348025526
CHB,Chilas Airport,CHB,PK,35.41452060123236,74.0834419268682
CHC,Christchurch International Airport,CHC,NZ,-43.49322737038842,172.5347858310508
CHE,City Hall Heliport,TLL,EE,59.444372610860746,24.757506212855695
CHF,Jinhae Airport,CHF,KR,35.133772505588155,128.6977847944519
CHG,Chaoyang Airport,CHG,CN,41.99780526293832,121.00296197740724
CHH,Chachapoyas Airport,CHH,PE,-6.222321543788657,-77.84777774451567
CHJ,Chipinge Airport,CHJ,ZW,-20.202492328961917,32.65286338393193
CHK,Chickasha Municipal Airport,CHK,US,35.04782823526188,-97.96432409560403
CHL,Challis Airport,CHL,US,44.495902555640875,-114.24778194485957
CHM,Chimbote Airport,CHM,PE,-9.155865167307507,-78.52959454822302
CHN,Jeonju Airport,CHN,KR,37.013075150055066,127.93574058875357
CHO,Albemarle Airport,CHO,US,38.136070947726466,-78.44938080661039
CHP,Circle Hot Springs Airport,CHP,US,65.4661610812783,-144.5801739356443
CHQ,Ioannis Daskalogiannis Airport,CHQ,GR,35.529114100032245,24.150170914500038
CHR,Deols Airport,CHR,FR,46.816380778977255,1.7016846423177896
CHS,Afb Municipal Airport,CHS,US,32.893508023864406,-80.03647771310041
CHT,Karewa Airport,CHT,NZ,-43.80262469450624,-176.34495221802908
CHU,Chuathbaluk Airport,CHU,US,61.827876404763416,-158.99579361295477
CHV,Chaves Airport,CHV,PT,41.72851480962681,-7.465640088313118
CHW,Jiuquan Airport,CHW,CN,39.84921558025448,98.41696073190077
CHX,Changuinola Airport,CHX,PA,9.448074320378993,-82.44862732038212
CHY,Choiseul Bay Airport,CHY,SB,-7.001544102136385,156.66958144581017
CHZ,State Airport,CHZ,US,42.58222356908129,-121.8623910202916
CIA,Ciampino Airport,ROM,IT,41.79727090890675,12.599341749636224
CIB,Ap In The Sky Airport,AVX,US,33.403439702013806,-118.41318647057018
CIC,Chico Airport,CIC,US,39.79192053840183,-121.85666732176713
CID,Cedar Rapids Airport,CID,US,41.88321517923301,-91.70189440034858
CIE,Collie Airport,CIE,AU,-33.36906335992113,116.13854223165917
CIF,Chifeng Airport,CIF,CN,42.27855677367711,118.93457579105227
CIG,Craig-Moffat Airport,CIG,US,40.490928928250106,-107.52126138606927
CIH,Changzhi Airport,CIH,CN,36.182285090360566,113.13624378952086
CIJ,E. Beltram Airport,CIJ,BO,-11.02943728306078,-68.74920761906081
CIK,Chalkyitsik Airport,CIK,US,66.64645192080235,-143.7264685912844
CIL,Melsing Creek Airport,CIL,US,64.90465805980072,-163.72841802847827
CIM,Cimitarra Airport,CIM,CO,6.480152647220176,-74.11208774024723
CIN,Carroll Airport,CIN,US,42.06656136221825,-94.86462032571215
CIO,Mcal Lopez Airport,CIO,PY,-23.439703174771772,-57.416100125501266
CIP,Chipata Airport,CIP,ZM,-13.561910917856013,32.58983781336564
CIQ,Chiquimula Airport,CIQ,GT,14.845335906299967,-89.61633028823104
CIR,Cairo Airport,CIR,US,36.99588356391415,-89.18087840788604
CIS,Canton Island Airport,CIS,KI,-2.8361410705296493,-171.66388207036084
CIT,Shimkent Airport,CIT,KZ,42.295744944723445,69.6029129634207
CIU,Chippewa County Airport,SSM,US,46.495525812526736,-84.34511813589536
CIV,Chomley Airport,CIV,US,55.21594251458384,-132.21574202835868
CIW,Canouan Island Airport,CIW,VC,12.696744516068838,-61.31221078280579
CIX,Cornel Ruiz Airport,CIX,PE,-6.795279646277993,-79.8302128303552
CIY,Vincenzo Magliocco,CIY,IT,36.99015645029509,14.610423502628425
CIZ,Coari Airport,CIZ,BR,-4.085189076550694,-63.128487856706414
CJA,Cajamarca Airport,CJA,PE,-7.139054166262135,-78.49521820613035
CJB,Peelamedu Airport,CJB,IN,11.023707608120786,77.0456334982002
CJC,El Loa Airport,CJC,CL,-22.48859421020562,-68.91536563099972
CJD,Candilejas Airport,CJD,CO,1.3292620677987916,-74.26106099623439
CJH,Chilko Lake Airport,CJH,CA,51.331289499612005,-124.07974363244453
CJJ,Cheongju Airport,CJJ,KR,36.71513546826994,127.5117634262142
CJL,Chitral Airport,CJL,PK,35.88434540857544,71.79734346071909
CJM,Chumphon Airport,CJM,TH,10.708581462836616,99.36807140401422
CJN,El Cajon Airport,CJN,US,32.79610269611086,-116.96360176264004
CJS,Intl Abraham Gonzalez Airport,CJS,MX,31.633000027633138,-106.42690798668231
CJT,Copalar Airport,CJT,MX,16.16313894438389,-92.04567148165367
CJU,Jeju Airport,CJU,KR,33.50084161467277,126.49761693825072
CKA,Kegelman Air Field,CKA,US,36.74951181036261,-98.34820804771542
CKB,Benedum Airport,CKB,US,39.293446502585134,-80.2255510097047
CKC,Cherkasy International Airport,CKC,UA,49.41187998433878,32.00542292231725
CKD,Crooked Creek Airport,CKD,US,61.86798327556973,-158.09624403888577
CKE,Clear Lake Airport,CKE,US,38.932481250233714,-122.6186978670871
CKG,Chongqing Airport,CKG,CN,29.495867987282,106.35242477378333
CKH,Chokurdah Airport,CKH,RU,70.62850684843315,147.8861357580922
CKI,Croker Island Airport,CKI,AU,-11.201324969939675,132.53659699480917
CKK,Cherokee Village Airport,CKK,US,36.49741294319203,-91.86232188357384
CKL,Chkalovsky Airport,CKL,RU,55.8633863912931,38.05585720611384
CKM,Fletcher Field,CKM,US,34.199850004521046,-90.5788951875826
CKN,Crookston Municipal Airport,CKN,US,47.7789490934234,-96.61214471542743
CKO,Cornelio Procopio Airport,CKO,BR,-23.118846500773962,-50.66665745185641
CKR,Crane Island Airport,CKR,US,48.5982815107852,-122.99684446029569
CKS,Carajas Airport,CKS,BR,-6.004597738050276,-51.331289499612005
CKT,Sarakhs Airport,CKT,IR,36.48595188576475,61.071569557967905
CKU,Cordova City Airport,CDV,US,60.54444970877217,-145.74901054793023
CKV,Outlaw Field,CKV,US,36.617733555610975,-87.41043873350539
CKX,Chicken Airport,CKX,US,64.06241377286811,-141.94456785947645
CKY,Conakry International Airport,CKY,GN,9.574124607737932,-13.607747463602323
CKZ,Canakkale Airport,CKZ,TR,40.129963675898686,26.401894746103775
CLA,Comilla Airport,CLA,BD,23.433974353605425,91.19768983581824
CLC,Metroport Airport,CLC,US,29.55316302913465,-95.13391419411825
CLD,Mc Clellan Palomar Airport,CLD,US,33.1226916063696,-117.27873303056609
CLE,Hopkins International Airport,CLE,US,41.40765984317629,-81.84702425828739
CLF,Off-Line Point,CLF,GB,52.746494450354895,1.369369152048518
CLG,Coalinga Airport,CLG,US,36.147908748267895,-120.34979098707892
CLH,Coolah Airport,CLH,AU,-31.833534381664712,149.70240600180367
CLI,Clintonville Airport,CLI,US,42.56503539803495,-88.86575397014917
CLJ,Napoca Airport,CLJ,RO,46.78200443688458,23.686074928323304
CLK,Clinton Municipal Airport,CSM,US,35.534841213651305,-98.92689582514475
CLL,Easterwood Field,CLL,US,30.584487442860727,-96.36004243316226
CLM,Fairchild International Airport,CLM,US,48.116995646014836,-123.48958796739876
CLN,Carolina Airport,CLN,BR,-7.333860126014185,-47.44663648464018
CLO,Alfonso B. Aragon Airport,CLO,CO,3.5408791353179185,-76.3810014504446
CLP,Clarks Point Airport,CLP,US,58.84276271857685,-158.53741961775523
CLQ,Colima Airport,CLQ,MX,19.297219056368426,-103.64806601343014
CLR,Calipatria Airport,CLR,US,33.12841871998866,-115.51401705470988
CLS,Centralia Airport,CLS,US,46.673141466798334,-122.97965970434394
CLT,Douglas Airport,CLT,US,35.213986247200786,-80.93028992826662
CLU,Columbus Municipal Airport,CLU,US,39.2132327609725,-85.91502345624446
CLV,Caldas Novas Airport,CLV,BR,-17.750232435779314,-48.63265785287788
CLW,Clearwater Executive,CLW,US,27.971800066452865,-82.75802122940534
CLX,Clorinda Airport,CLX,AR,-25.336193990285025,-57.662471879052795
CLY,Sainte Catherine Airport,CLY,FR,42.52492852722864,8.794902476277027
CLZ,Calabozo Airport,CLZ,VE,8.932412113515955,-67.43140458097689
CMA,Cunnamulla Airport,CMA,AU,-28.034825637019157,145.617228878084
CMB,Bandaranayake International Airport,CMB,LK,7.17343178901528,79.88750445711325
CMC,Camocim Airport,CMC,BR,-2.922084700525685,-40.82897206574696
CMD,Cootamundra Airport,CMD,AU,-34.629567941057815,148.04656324131747
CME,Ciudad Del Carmen Airport,CME,MX,18.649776887206457,-91.79929972810214
CMF,Chambery Aix Les Bains,CMF,FR,43.630736153853704,5.867087673924525
CMG,Corumba Internacional Airport,CMG,BR,-19.016469253176933,-57.66820240776644
CMH,Port Columbus International Airport,CMH,US,39.986724363719766,-82.87261814329982
CMI,Willard University Airport,CMI,US,40.03829229195336,-88.27560513529255
CMJ,Chi Mei Airport,CMJ,TW,23.244897641906547,119.42159559963086
CMK,Club Makokola Airport,CMK,MW,-14.301026178510604,35.05355876397552
DTN,Shreveport Downtown Airport,SHV,US,32.53827330022663,-93.74162794313534
FDH,Friedrichshafen Airport,FDH,DE,47.66435900971809,9.516828712111634
FDK,Frederick Municipal Airport,FDK,US,39.41376711500408,-77.41232586417068
FDR,Frederick Municipal Airport,FDR,US,34.383196187506286,-99.01283326528186
FDU,Bandundu Airport,FDU,CD,-3.305966518202966,17.38354006980884
FDY,Findlay Airport,FDY,US,41.029506419778535,-84.52846090378601
FEA,Fetlar Airport,FEA,GB,60.57882605086484,-0.9625690614980824
FEB,Sanfebagar Airport,FEB,NP,29.232308062684133,81.21676855262446
FEC,Feira De Santana Airport,FEC,BR,-12.204001008965777,-38.90383543685468
FEG,Fergana Airport,FEG,UZ,40.347689616071186,71.73431447505821
FEJ,Feijo Airport,FEJ,BR,-8.153189128281404,-70.34775875278893
FEK,Ferkessedougou Airport,FEK,CI,9.597043307497911,-5.196727231889399
FEL,Fuerstenfeldbruck Airport,FEL,DE,48.19720938762747,11.270080215445962
FEN,Fernando De Noronha Airport,FEN,BR,-3.8502762459923296,-32.41222215909404
FEP,Albertus Airport,FEP,US,42.27855677367711,-89.59913870209012
FER,Fergusons Gulf Airport,FER,KE,3.51223118750477,35.9187251657627
FES,Bahia Sur Railway Station,FES,ES,36.46303318600477,-6.199403270915502
FET,Fremont Municipal Airport,FET,US,41.43057854293627,-96.49755463172212
FEW,Warren Air Force Base,CYS,US,41.13263886115114,-104.81117209700244
FEZ,Saiss Airport,FEZ,MA,33.93055955120954,-4.961814401331035
FFA,First Flight Airport,FFA,US,36.01612707842167,-75.66480830464458
FFD,Fairford Raf Station,FFD,GB,51.732358207675155,-1.7818987040955367
FFL,Fairfield Municipal Airport,FFL,US,40.93210450711957,-91.94826615390012
FFM,Fergus Falls Airport,FFM,US,46.27779987235424,-96.06210275137714
FFO,Patterson Air Force Base,DAY,US,39.74608313888187,-84.19614487990822
FFT,Capital City Airport,FFT,US,38.18190834724643,-84.90088379847013
FFU,Futaleufu Airport,FFU,CL,-43.201018217316935,-71.81452821667084
FGD,Fderik Airport,FGD,MR,22.67194039319086,-12.731122565708805
FGI,Fagali I Airport,APW,WS,-13.836931046107516,-171.73263475454618
FGL,Fox Glacier Airport,FGL,NZ,-43.47030867062844,170.01950036730193
FGR,Fuengirola Airport,FGR,ES,36.5317892852847,-4.629498804340058
FGU,Fangatau Airport,FGU,PF,-16.05427768184493,-141.82997094558198
FHU,Libby Aaf,FHU,US,31.587162628113184,-110.34021023012777
FHZ,Fakahina Airport,FHZ,PF,-16.002711461158626,-140.08245338605587
FIC,Fire Cove Airport,FIC,US,55.77744212096683,-131.5339252246513
FID,Elizabeth Field,FID,US,40.995130077685864,-71.99787781475067
FIE,Fair Isle Airport,FIE,GB,59.49594053909434,-1.6615775580680632
FIG,Katourou Airport,FIG,GN,10.347617918032489,-13.561910917856013
FIH,N Djili International Airport,FIH,CD,-4.388856725728522,15.435483033609286
FIK,Finke Airport,FIK,AU,-25.571106393956565,134.58778476483405
FIL,Fillmore Municipal Airport,FIL,US,38.95539994999369,-112.35702165805995
FIN,Finschhafen Airport,FIN,PG,-6.629121634339093,147.86895100214045
FIV,Five Fingers Airport,FIV,US,57.26140317098965,-133.63094356400697
FIZ,Fitzroy Crossing Airport,FIZ,AU,-18.179950372316082,125.55797415375372
FJR,Fujairah International Airport,FJR,AE,25.107010407779832,56.33321119863618
FKB,Baden Airpark,FKB,DE,48.7758971650568,8.084434736548763
FKI,Bangoka International Airport,FKI,CD,0.5156619934196262,25.20441402798609
FKJ,Fukui Airport,FKJ,JP,36.13644769084061,136.2321801282713
FKL,Chess-Lambertin Airport,FKL,US,41.37901061470267,-79.85885864373422
FKN,Franklin Municipal Airport,FKN,US,36.680759126177264,-76.9310434144949
FKQ,Fak Fak Airport,FKQ,ID,-2.922084700525685,132.30167946849576
FKS,Fukushima Airport,FKS,JP,37.22506714641934,140.43769152478825
FLA,Capitolio Airport,FLA,CO,1.5870930645086048,-75.55594191946375
FLB,Cangapara Airport,FLB,BR,-6.801008894331164,-43.0291296766644
FLC,Falls Creek Airport,FLC,AU,-36.835456080688886,143.28527935203658
FLD,Fond Du Lac Airport,FLD,US,43.76824493731898,-88.48187001803777
FLE,Fort Lee Aaf,PTB,US,37.21360950408664,-77.39514110821892
FLF,Schaferhaus Airport,FLF,DE,54.76903640700073,9.379319074872706
FLG,Pulliam Field,GCN,US,35.133772505588155,-111.66947432563896
FLH,Flotta Airport,FLH,GB,58.49899246746094,-2.9965691940851436
FLI,Holt Airport,FLI,IS,66.01046568642579,-23.439703174771772
FLJ,Falls Bay Airport,FLJ,US,60.02879091700372,-148.00645637051116
FLL,Ft. Lauderdale International Airport,FLL,US,26.069580429773264,-80.1510677968057
FLM,Filadelfia Airport,FLM,PY,-22.351083719193046,-60.02879091700372
FLN,Hercilio Luz Airport,FLN,BR,-27.673862092215032,-48.546713582551604
FLO,Florence Airport,FLO,US,34.18839236218835,-79.72134644517436
FLP,Flippin Airport,FLP,US,36.296875174065875,-92.57852185956304
FLR,Peretola Airport,FLR,IT,43.8083518081253,11.207054644879669
FLS,Flinders Island Airport,FLS,AU,-40.095587333806016,148.00073267198667
FLT,Flat Airport,FLT,US,62.4524015817127,-157.9816471249913
FLU,Flushing Airport,NYC,US,40.77167702389431,-73.83133964460303
FLV,Sherman Army Air Field,FLV,US,39.36219918677048,-94.91618825394575
FLW,Santa Cruz Airport,FLW,PT,39.46533162814308,-31.145987049243722
FLX,Fallon Municipal Airport,NFL,US,39.46533162814308,-118.77988566672983
FLY,Finley Airport,FLY,AU,-35.65516524116483,145.58856940432662
FMA,El Pucu Airport,FMA,AR,-26.21281974195219,-58.22969859905485
FMC,Five Mile Airport,FMC,US,66.91573895901928,-149.83992503055268
FME,Tipton Aaf,FME,US,39.081451091126276,-76.75915487384236
FMG,Flamingo Airport,FMG,CR,10.41637230976513,-85.78324178639822
FMH,Otis Air Force Base,FMH,US,41.66548923906052,-70.54829310682051
FMI,Kalemie Airport,FMI,CD,-5.878547023804514,29.24949623373047
FMM,Allgaeu Airport,FMM,DE,47.99094450488225,10.24448547665988
FMN,Farmington Municipal Airport,FMN,US,36.73805416802992,-108.22600030463119
FMO,Muenster/Osnabrueck Airport,FMO,DE,52.133430330832894,7.689093995878317
FMR,Cap Canaveral,FMR,US,28.48173174460226,-81.2969822942371
FMS,Fort Madison Municipal Airport,FMS,US,40.65708352509442,-91.32374097695083
FMU,Florence Municipal,FMU,US,43.98024034877784,-124.10838944582358
FMY,Page Field,FMY,US,26.579512107922664,-81.86420901423914
